{"version": 0.6, "generator": "Overpass API 0.7.62.5 1bd436f1", "osm3s": {"timestamp_osm_base": "2025-02-15T14:04:00Z", "copyright": "The data included in this document is from www.openstreetmap.org. The data is made available under ODbL."}, "elements": [{"type": "node", "id": 260896310, "lat": 47.5022714, "lon": 19.0528557, "tags": {"addr:city": "Budapest", "addr:housenumber": "15", "addr:postcode": "1051", "addr:street": "Hercegpr\u00edm\u00e1s utca", "amenity": "cafe", "capacity": "67", "check_date:opening_hours": "2024-07-11", "contact:email": "tanya@cookiebeacon.com", "contact:facebook": "100075998267990", "contact:foursquare": "61bafb4fff6d024d5fd1d802", "contact:phone": "+36 30 688 9438", "contact:tripadvisor": "23806050", "contact:website": "https://www.cookiebeacon.com/", "name": "Cookie Beacon", "opening_hours": "Mo-Fr 08:00-17:00; Sa,Su 09:00-17:00", "operator": "Spangary Investments Kft.", "ref:google": "/g/11pkhq9tsf", "short_name": "Caf\u00e9 Vian", "toilets:wheelchair": "no", "wheelchair": "no"}}, {"type": "node", "id": 263984860, "lat": 47.504527, "lon": 19.0531945, "tags": {"addr:city": "Budapest", "addr:housenumber": "1", "addr:postcode": "1054", "addr:street": "Nagys\u00e1ndor J\u00f3zsef utca", "amenity": "cafe"}}, {"type": "node", "id": 263988027, "lat": 47.505579, "lon": 19.0478428, "tags": {"addr:city": "Budapest", "addr:housenumber": "10", "addr:postcode": "1055", "addr:street": "Kossuth Lajos t\u00e9r", "amenity": "cafe", "capacity": "50", "contact:email": "parlament.cafe@szamos.hu", "contact:facebook": "1798015517077059", "contact:foursquare": "57407600498ee175f9514071", "contact:phone": "+36 1 269 0216", "contact:tripadvisor": "10464348", "contact:website": "https://www.szamos.hu/uzletek/szamos-cafe", "indoor_seating": "yes", "level": "0", "name": "Szamos Today", "opening_hours": "Mo-Fr 07:30-19:00; Sa,Su 09:00-19:00", "operator": "S\u00f3s Karamell Kft.", "outdoor_seating": "yes", "ref:google": "/g/11c423xm27", "shop": "pastry", "toilets:wheelchair": "limited", "wheelchair": "limited"}}, {"type": "node", "id": 264117979, "lat": 47.4953643, "lon": 19.0526831, "tags": {"addr:city": "Budapest", "addr:housenumber": "3", "addr:postcode": "1052", "addr:street": "Szervita t\u00e9r", "amenity": "cafe", "capacity": "116", "check_date": "2023-03-31", "contact:email": "info@alamaisonbudapest.hu", "contact:facebook": "330614540479174", "contact:foursquare": "571a388d498e8504cd19efe0", "contact:phone": "+36 20 618 7580", "contact:tripadvisor": "14959587", "contact:website": "https://www.alamaisongrand.com/", "name": "\u00c0 la Maison", "opening_hours": "Mo-Fr 08:00-15:00; Sa 07:00-16:00", "operator": "Benedictheaven Kft.", "payment:mastercard": "yes", "payment:visa": "yes", "ref:google": "/g/11bc740qn3", "wheelchair": "no"}}, {"type": "node", "id": 264126505, "lat": 47.4991581, "lon": 19.0522527, "tags": {"addr:city": "Budapest", "addr:housenumber": "2", "addr:postcode": "1051", "addr:street": "Sas utca", "amenity": "cafe", "name": "Vaj", "opening_hours": "Mo-Su 08:00-20:00", "ref:google": "/g/11s4tvpc7h"}}, {"type": "node", "id": 264139922, "lat": 47.5001584, "lon": 19.0534602, "tags": {"addr:city": "Budapest", "addr:housenumber": "7", "addr:postcode": "1051", "addr:street": "Hercegpr\u00edm\u00e1s utca", "amenity": "cafe", "contact:email": "9404141@gmail.com", "contact:facebook": "100083284603151", "cuisine": "strudel", "indoor_seating": "yes", "name": "Strudli", "opening_hours": "Mo-Su 09:00-18:00", "operator": "Hell\u00f3 Gring\u00f3 Kft.", "outdoor_seating": "yes", "wheelchair": "no"}}, {"type": "node", "id": 272560811, "lat": 47.4894333, "lon": 19.0609703, "tags": {"addr:city": "Budapest", "addr:housenumber": "2", "addr:postcode": "1053", "addr:street": "K\u00e1lvin t\u00e9r", "amenity": "cafe", "capacity": "26", "contact:email": "tsukim2020@gmail.com", "contact:facebook": "100063694267827", "contact:foursquare": "617d4cb82cbfff47a82b8897", "contact:phone": "+36 70 776 0960", "contact:tripadvisor": "23139431", "contact:website": "http://matchatsuki.com/", "cuisine": "japanese;teahouse", "indoor_seating": "yes", "name": "Matcha Tsuki", "opening_hours": "Mo-Sa 09:00-19:30; Su 10:00-18:30", "operator": "K\u00f6zigApp Kft.", "outdoor_seating": "yes", "ref:google": "/g/11lgbr42kk"}}, {"type": "node", "id": 272854680, "lat": 47.49313, "lon": 19.0540579, "tags": {"addr:city": "Budapest", "addr:housenumber": "4-6", "addr:postcode": "1052", "addr:street": "K\u00edgy\u00f3 utca", "amenity": "cafe", "capacity": "250", "contact:email": "info@apostoloketterem.hu", "contact:facebook": "100063644076796", "contact:foursquare": "4f2fb901e4b0d337d639d7ce", "contact:phone": "+36 1 269 9566", "contact:tripadvisor": "1792711", "contact:website": "https://www.apostoloketterem.hu/", "name": "Apostolok-J\u00e9gb\u00fcf\u00e9", "opening_hours": "Mo-Sa 07:00-20:00; Su 08:00-20:00", "operator": "J\u00e9gb\u00fcf\u00e9 Kft.", "payment:credit_cards": "no", "ref:google": "/g/1tk21q4h", "shop": "pastry", "wheelchair": "no"}}, {"type": "node", "id": 276305672, "lat": 47.5076641, "lon": 19.0543146, "tags": {"addr:city": "Budapest", "addr:housenumber": "31", "addr:postcode": "1054", "addr:street": "Alkotm\u00e1ny utca", "amenity": "cafe", "capacity": "30", "contact:foursquare": "4d07b9cbeb582c0f591a7753", "name": "Panna Cafe", "opening_hours": "Mo-Fr 07:00-21:00; Sa 09:00-18:00", "operator": "Cafelatte Kft.", "ref:google": "/g/11g8cp90hx", "takeaway": "yes", "toilets:wheelchair": "no", "wheelchair": "yes"}}, {"type": "node", "id": 276309425, "lat": 47.5016025, "lon": 19.0509413, "tags": {"addr:city": "Budapest", "addr:housenumber": "17", "addr:postcode": "1051", "addr:street": "Okt\u00f3ber 6. utca", "amenity": "cafe", "capacity": "20", "check_date:opening_hours": "2024-01-13", "contact:email": "krisztina@istvancukraszda.hu", "contact:facebook": "100023338395748", "contact:foursquare": "4cd025c16200b1f78a76d228", "contact:phone": "+36 1 331 3274", "contact:tripadvisor": "2368885", "contact:website": "https://istvancukraszda.hu/", "indoor_seating": "no", "name": "Istv\u00e1n Cukr\u00e1szda", "opening_hours": "Mo-Sa 10:00-18:00", "operator": "Istv\u00e1n Cukr\u00e1szda Kft.", "outdoor_seating": "yes", "ref:google": "/g/1v1knn37", "shop": "pastry", "smoking": "no", "toilets:wheelchair": "no"}}, {"type": "node", "id": 276510449, "lat": 47.497007, "lon": 19.0503393, "tags": {"addr:city": "Budapest", "addr:housenumber": "7-8", "addr:postcode": "1051", "addr:street": "V\u00f6r\u00f6smarty t\u00e9r", "amenity": "cafe", "capacity": "290", "contact:email": "gerbeaud@gerbeaud.hu", "contact:facebook": "116592035029287", "contact:fax": "+36 1 429 9009", "contact:foursquare": "4b976131f964a5209b0135e3", "contact:phone": "+36 1 429 9000", "contact:tripadvisor": "952413", "contact:website": "https://gerbeaud.hu/", "name": "Gerbeaud Cukr\u00e1szda", "name:de": "Konditorei Gerbeaud", "name:en": "Gerbeaurd Confectionary", "name:fr": "Gerbeaud Caf\u00e9", "name:it": "Pasticceria Gerbeaud", "name:ru": "\u041a\u043e\u043d\u0434\u0438\u0442\u0435\u0440\u0441\u043a\u0430\u044f \u0416\u0435\u0440\u0431\u043e", "opening_hours": "Mo-Th,Su 09:00-20:00; Fr,Sa 09:00-21:00", "operator": "Gerbeaud Gasztron\u00f3mia Kft.", "ref:google": "/m/05b3c_f", "shop": "pastry", "wheelchair": "no", "wikidata": "Q464845", "wikimedia_commons": "Category:Caf\u00e9 Gerbeaud", "wikipedia": "de:Caf\u00e9 Gerbeaud"}}, {"type": "node", "id": 729126301, "lat": 47.4963992, "lon": 19.0501468, "tags": {"addr:city": "Budapest", "addr:housenumber": "1", "addr:postcode": "1051", "addr:street": "V\u00f6r\u00f6smarty t\u00e9r", "amenity": "cafe", "capacity": "50", "contact:email": "info@cafedeparis.hu", "contact:facebook": "1711432122438638", "contact:foursquare": "4bfbee9c565f76b0c62106db", "contact:phone": "+36 1 411 0817", "contact:tripadvisor": "3386953", "contact:website": "https://cafedeparis.hu/", "indoor_seating": "yes", "name": "Caf\u00e9 de Paris", "opening_hours": "Mo-Su 09:00-00:00", "operator": "Cafe de Paris Kft.", "outdoor_seating": "yes", "ref:google": "/g/1wj_s136", "toilets:wheelchair": "no", "wheelchair": "limited"}}, {"type": "node", "id": 813172028, "lat": 47.4876558, "lon": 19.0577919, "tags": {"addr:city": "Budapest", "addr:housenumber": "6", "addr:postcode": "1056", "addr:street": "F\u0151v\u00e1m t\u00e9r", "amenity": "cafe", "capacity": "22", "check_date": "2024-04-29", "contact:facebook": "100063770597231", "contact:foursquare": "4ba4b1b7f964a520e0ac38e3", "contact:phone": "+36 1 266 2820", "contact:tripadvisor": "11773542", "contact:website": "https://annacafe.hu/", "indoor_seating": "yes", "internet_access": "wlan", "internet_access:fee": "no", "name": "Anna Caf\u00e9", "opening_hours": "08:30-18:00", "operator": "Fusion Zrt.", "outdoor_seating": "yes", "ref:google": "/g/11c1l71k6h", "wheelchair": "no"}}, {"type": "node", "id": 1648766541, "lat": 47.5056626, "lon": 19.0520112, "tags": {"addr:city": "Budapest", "addr:housenumber": "7", "addr:postcode": "1054", "addr:street": "Aulich utca", "amenity": "cafe", "capacity": "30", "contact:email": "javacaffe@gmail.com", "contact:facebook": "108834405864383", "contact:foursquare": "4c2321ab9085d13a9e6387cc", "contact:phone": "+36 1 311 2251", "contact:tripadvisor": "8064903", "name": "Java Caff\u00e9", "opening_hours": "Mo-Fr 07:00-17:00", "operator": "Java K\u00e1v\u00e9z\u00f3 Kft.", "ref:google": "/g/1hhw5sg65"}}, {"type": "node", "id": 1648766559, "lat": 47.505842, "lon": 19.0515076, "tags": {"addr:city": "Budapest", "addr:housenumber": "8", "addr:postcode": "1054", "addr:street": "Aulich utca", "amenity": "cafe", "contact:email": "info@ittvarlak.com", "contact:facebook": "ittvarlak", "contact:instagram": "ittvarlak", "contact:website": "https://ittvarlak.com/", "name": "Itt V\u00e1rlak!", "opening_hours": "Su-Th 07:30-22:00; Fr,Sa 07:30-23:00", "smoking": "outside", "wheelchair": "yes"}}, {"type": "node", "id": 1758991234, "lat": 47.4905633, "lon": 19.059006, "tags": {"addr:city": "Budapest", "addr:housenumber": "4", "addr:postcode": "1053", "addr:street": "Egyetem t\u00e9r", "amenity": "cafe", "brand": "Starbucks", "brand:wikidata": "Q37158", "brand:wikipedia": "en:Starbucks", "capacity": "40", "contact:facebook": "1735623803348150", "contact:phone": "+36 70 682 1938", "contact:website": "https://www.starbucks.com/store-locator/store/1014602", "cuisine": "coffee_shop", "indoor_seating": "yes", "internet_access": "wlan", "internet_access:ssid": "Starbucks HotSpot", "name": "Starbucks", "official_name": "Starbucks Coffee", "old_name": "Caf\u00e9 Alibi", "opening_hours": "Mo-Sa 07:00-22:00; Su 08:00-21:00", "operator": "AmRest K\u00e1v\u00e9z\u00f3 Kft.", "outdoor_seating": "yes", "ref:google": "/g/11c426gvgb", "takeaway": "yes", "wheelchair": "no"}}, {"type": "node", "id": 1876380714, "lat": 47.4898, "lon": 19.0599256, "tags": {"addr:city": "Budapest", "addr:housenumber": "6", "addr:postcode": "1053", "addr:street": "K\u00e9p\u00edr\u00f3 utca", "amenity": "cafe", "capacity": "10", "contact:email": "info@dynamobike.com", "contact:facebook": "100045142761610", "contact:phone": "+36 30 868 1107", "contact:tripadvisor": "4584578", "contact:website": "http://dynamobike.com/", "name": "Dynamo Bike & Bake", "opening_hours": "Th-Su 11:00-18:00", "operator": "Dyanims Kft.", "ref:google": "/g/11b6smfbfn", "service:bicycle:rental": "yes", "shop": "bicycle"}}, {"type": "node", "id": 1947120287, "lat": 47.5001462, "lon": 19.0533232, "tags": {"addr:city": "Budapest", "addr:housenumber": "7", "addr:postcode": "1051", "addr:street": "Hercegpr\u00edm\u00e1s utca", "amenity": "cafe", "brand": "Starbucks", "brand:wikidata": "Q37158", "brand:wikipedia": "en:Starbucks", "capacity": "68", "contact:email": "starbuckshungary@amrest.eu", "contact:facebook": "165637166931596", "contact:phone": "+36 70 682 1924", "contact:tripadvisor": "2294209", "contact:website": "https://www.starbucks.hu/", "cuisine": "coffee_shop", "indoor_seating": "yes", "internet_access": "wlan", "name": "Starbucks", "official_name": "Starbucks Coffee", "opening_hours": "Mo-Fr 07:00-22:00; Sa,Su 08:00-22:00", "operator": "AmRest K\u00e1v\u00e9z\u00f3 Kft.", "outdoor_seating": "yes", "ref:google": "/g/1hhj4h4x9", "smoking": "outside", "takeaway": "yes", "toilets:wheelchair": "yes", "wheelchair": "no", "wheelchair:description": "l\u00e9pcs\u0151 van, r\u00e1mp\u00e1t k\u00e9r\u00e9sre kiraknak"}}, {"type": "node", "id": 2071430686, "lat": 47.4979456, "lon": 19.0506762, "tags": {"addr:city": "Budapest", "addr:housenumber": "9", "addr:postcode": "1051", "addr:street": "J\u00f3zsef n\u00e1dor t\u00e9r", "amenity": "cafe", "capacity": "30", "contact:email": "thepatmoscafe@gmail.com", "contact:facebook": "100058869713533", "contact:foursquare": "5012aad9582fbdd2132ab0dc", "contact:phone": "+36 30 947 7323", "contact:tripadvisor": "4209847", "contact:website": "http://www.patmosrecords.hu/", "name": "Patmos Book & Caf\u00e9", "opening_hours": "Mo-Fr 09:00-18:00", "operator": "Patmos Records", "ref:google": "/g/12vrbxb12", "shop": "books", "wheelchair": "no"}}, {"type": "node", "id": 2242496332, "lat": 47.5019732, "lon": 19.0497946, "tags": {"addr:city": "Budapest", "addr:housenumber": "15", "addr:postcode": "1051", "addr:street": "Arany J\u00e1nos utca", "amenity": "cafe", "capacity": "44", "contact:email": "info@espressoembassy.hu", "contact:facebook": "547804408568848", "contact:foursquare": "506ee78fe4b0f919387f5d1b", "contact:phone": "+36 20 445 0063", "contact:tripadvisor": "3749079", "contact:website": "https://espressoembassy.hu/", "diet:lactose_free": "yes", "free_refill": "yes", "free_refill_note": "Sz\u0171rt vizes csapn\u00e1l \u00fajrat\u00f6lt\u00e9si lehet\u0151s\u00e9g.", "internet_access": "wlan", "internet_access:ssid": "espressoembassy", "name": "Espresso Embassy", "opening_hours": "Mo-Fr 07:30-17:00; Sa,Su 08:30-17:00", "operator": "Volatilis Kft.", "ref:google": "/g/1q2wkxm7b", "takeaway": "yes", "toilets:wheelchair": "limited", "wheelchair": "yes"}}, {"type": "node", "id": 2291206594, "lat": 47.5024352, "lon": 19.0522722, "tags": {"addr:city": "Budapest", "addr:housename": "Bank Center", "addr:housenumber": "26-28", "addr:postcode": "1051", "addr:street": "Arany J\u00e1nos utca", "amenity": "cafe", "capacity": "7", "check_date:opening_hours": "2024-07-16", "contact:email": "espressobar.bc@gmail.com", "contact:facebook": "133351730380489", "contact:foursquare": "582b32058f3b464e839dd44c", "contact:tripadvisor": "9836642", "internet_access": "wlan", "internet_access:fee": "no", "name": "BlackStart", "opening_hours": "Mo-Th 08:00-15:00; Fr 08:00-14:00", "operator": "Expresso Caf\u00e9 Hungary Kft.", "ref:google": "/g/11g8743044"}}, {"type": "node", "id": 2305093207, "lat": 47.4966434, "lon": 19.0539248, "tags": {"addr:city": "Budapest", "addr:housenumber": "2", "addr:postcode": "1052", "addr:street": "S\u00fct\u0151 utca", "amenity": "cafe", "capacity": "50", "check_date:opening_hours": "2025-02-05", "contact:email": "info@cserpestejivo.hu", "contact:facebook": "126022727529042", "contact:foursquare": "4fc8c79ee4b042a57f146f59", "contact:tripadvisor": "3393375", "contact:website": "https://cserpestejivo.hu/", "cuisine": "sandwich;cafe_shop", "delivery": "no", "drive_through": "no", "indoor_seating": "yes", "internet_access": "wlan", "internet_access:fee": "no", "name": "Cserpes Tejiv\u00f3", "name:en": "Cserpes Tejiv\u00f3 milk bar", "opening_hours": "Mo-Fr 07:30-19:00; Sa 09:00-16:00", "operator": "Cserpes-Sajtm\u0171hely Kft.", "outdoor_seating": "no", "ref:google": "/g/1jkys17ck", "wheelchair": "limited"}}, {"type": "node", "id": 2305172630, "lat": 47.489216, "lon": 19.0557403, "tags": {"addr:city": "Budapest", "addr:housenumber": "65", "addr:postcode": "1056", "addr:street": "V\u00e1ci utca", "amenity": "cafe", "capacity": "15", "contact:email": "contact@1000tea.hu", "contact:facebook": "100064110092689", "contact:phone": "+36 1 337 8217", "contact:tripadvisor": "3728318", "contact:website": "https://1000tea.hu/", "cuisine": "teahouse", "name": "1000 Tea", "opening_hours": "Mo-Sa 12:00-21:00", "operator": "1000 T\u00e9a Kft.", "ref:google": "/g/1tywwqxk", "shop": "tea"}}, {"type": "node", "id": 2305181907, "lat": 47.4955073, "lon": 19.0513488, "tags": {"addr:city": "Budapest", "addr:housenumber": "5", "addr:postcode": "1052", "addr:street": "V\u00e1ci utca", "amenity": "cafe", "capacity": "84", "contact:facebook": "100063770597231", "contact:foursquare": "4b83b33cf964a520670d31e3", "contact:phone": "+36 1 266 9080", "contact:tripadvisor": "2085590", "contact:website": "https://annacafe.hu/vaci-utca/", "diet:halal": "no", "diet:kosher": "no", "diet:vegan": "yes", "diet:vegetarian": "yes", "indoor_seating": "yes", "name": "Anna Caf\u00e9", "opening_hours": "Mo-Su 09:00-23:00", "operator": "Fusion Zrt.", "outdoor_seating": "yes", "ref:google": "/g/11b6_d_z5m", "smoking": "no", "wheelchair": "no", "wikidata": "Q116851466"}}, {"type": "node", "id": 2306125869, "lat": 47.4918759, "lon": 19.0555071, "tags": {"addr:city": "Budapest", "addr:housenumber": "10", "addr:postcode": "1053", "addr:street": "Veres P\u00e1ln\u00e9 utca", "amenity": "cafe", "capacity": "40", "contact:email": "webshop@bigbenteahaz.hu", "contact:facebook": "100063486914973", "contact:foursquare": "4e97ed184690053a318b8e80", "contact:phone": "+36 1 317 8982", "contact:tripadvisor": "4476597", "contact:website": "https://www.bigbenteahaz.hu/", "cuisine": "teahouse", "diet:vegan": "yes", "diet:vegetarian": "yes", "name": "Big Ben Teah\u00e1z", "opening_hours": "Mo-Sa 10:00-21:00", "operator": "K+M Kft.", "ref:google": "/g/1tkv8jxf", "shop": "tea"}}, {"type": "node", "id": 2306149376, "lat": 47.4931699, "lon": 19.0591879, "tags": {"addr:city": "Budapest", "addr:housenumber": "16", "addr:postcode": "1053", "addr:street": "Re\u00e1ltanoda utca", "amenity": "cafe", "cafe": "board_game", "capacity": "120", "contact:email": "jatszma@jatszma.com", "contact:facebook": "100039709280142", "contact:phone": "+36 1 622 9935", "contact:tripadvisor": "24923119", "contact:website": "https://www.jatszma.com/", "name": "J\u00e1tsz/Ma T\u00e1rsasj\u00e1t\u00e9k K\u00e1v\u00e9z\u00f3", "opening_hours": "We,Th 15:00-22:00; Fr 15:00-00:00; Sa 14:00-00:00; Su 14:00-22:00", "operator": "J\u00e1tsz/Ma Vel\u00fcnk Kft.", "ref:google": "/g/11fq89433g"}}, {"type": "node", "id": 2340693114, "lat": 47.4938972, "lon": 19.0578108, "tags": {"addr:city": "Budapest", "addr:housenumber": "14-16", "addr:postcode": "1053", "addr:street": "Kossuth Lajos utca", "amenity": "cafe", "capacity": "38", "contact:email": "belvaros@auguszt.hu", "contact:facebook": "100047348274137", "contact:foursquare": "4b66f242f964a520a7312be3", "contact:phone": "+36 1 337 6379", "contact:tripadvisor": "1478658", "contact:website": "https://auguszt.hu/auguszt-belvaros/", "cuisine": "cake;ice_cream", "dog": "yes", "indoor_seating": "yes", "name": "Auguszt Cukr\u00e1szda", "opening_hours": "Tu-Sa 10:00-18:00", "operator": "Belv\u00e1rosi Auguszt Kft.", "operator:addr": "1053 Budapest, Kossuth Lajos utca 14-16", "outdoor_seating": "no", "ref:HU:vatin": "14984600-2-41", "ref:google": "/g/11jgdz743", "shop": "confectionery", "wheelchair": "no"}}, {"type": "node", "id": 2385679998, "lat": 47.4877356, "lon": 19.0572391, "tags": {"addr:city": "Budapest", "addr:housenumber": "5", "addr:postcode": "1056", "addr:street": "F\u0151v\u00e1m t\u00e9r", "amenity": "cafe", "brand": "Starbucks", "brand:wikidata": "Q37158", "capacity": "38", "contact:email": "starbuckshungary@amrest.eu", "contact:facebook": "106398168274985", "contact:foursquare": "60901827fd12f559b75ecb58", "contact:website": "https://www.starbucks.hu/", "cuisine": "coffee_shop", "name": "Starbucks", "official_name": "Starbucks Coffee", "opening_hours": "Mo-Su 09:00-20:00", "operator": "AmRest K\u00e1v\u00e9z\u00f3 Kft.", "ref:google": "/g/11rb4ff6pt", "takeaway": "yes"}}, {"type": "node", "id": 2504273815, "lat": 47.500494, "lon": 19.0503574, "tags": {"addr:city": "Budapest", "addr:housenumber": "12", "addr:postcode": "1051", "addr:street": "Zr\u00ednyi utca", "amenity": "cafe", "contact:facebook": "https://www.facebook.com/profile.php?id=100085650422533", "contact:tripadvisor": "25291759", "name": "Cause", "opening_hours": "Mo-Su 09:00-18:00", "outdoor_seating": "yes"}}, {"type": "node", "id": 2696070898, "lat": 47.5003966, "lon": 19.0529769, "tags": {"addr:city": "Budapest", "addr:housenumber": "4-5", "addr:postcode": "1051", "addr:street": "Szent Istv\u00e1n t\u00e9r", "amenity": "cafe", "capacity": "50", "check_date:opening_hours": "2024-11-17", "contact:email": "info@californiacoffeeco.net", "contact:facebook": "272993528703", "contact:foursquare": "4b88f03ef964a520611432e3", "contact:phone": "+36 30 501 1880", "contact:tripadvisor": "4153178", "contact:website": "https://californiacoffeeco.net/kavezok/szent-istvan-ter/", "diet:vegan": "yes", "diet:vegetarian": "yes", "dog": "yes", "internet_access": "wlan", "name": "California Coffee Company", "opening_hours": "Mo-Su 07:00-23:00", "operator": "Cafe Gloriosum Kft.", "payment:cash": "yes", "payment:coins": "yes", "payment:contactless": "yes", "payment:debit_cards": "yes", "payment:notes": "yes", "ref:google": "/g/1vxdx1tx", "wheelchair": "yes"}}, {"type": "node", "id": 2759471855, "lat": 47.5115507, "lon": 19.0483236, "tags": {"addr:city": "Budapest", "addr:housenumber": "28", "addr:postcode": "1055", "addr:street": "Falk Miksa utca", "amenity": "cafe", "brand": "CBA", "brand:wikidata": "Q779845", "brand:wikipedia": "en:CBA (food retail)", "capacity": "52", "contact:email": "falkmiksa@cafefrei.hu", "contact:facebook": "100063690083268", "contact:foursquare": "60a75065f56311697f459b46", "contact:phone": "+36 30 387 3202", "contact:website": "https://www.cafefrei.hu/", "name": "Cafe Frei", "opening_hours": "Mo-Fr 07:30-19:00; Sa,Su 09:00-18:00", "operator": "Belfi Group Kft.", "ref:google": "/g/11qpyyghhk"}}, {"type": "node", "id": 2937221929, "lat": 47.4900453, "lon": 19.0568335, "tags": {"addr:city": "Budapest", "addr:housenumber": "17", "addr:postcode": "1053", "addr:street": "Veres P\u00e1ln\u00e9 utca", "air_conditioning": "yes", "amenity": "cafe", "capacity": "28", "contact:email": "info@mantracoffee.hu", "contact:facebook": "100063722992416", "contact:foursquare": "53909538498ec1ba1d8e850a", "contact:phone": "+36 70 392 0212", "contact:tripadvisor": "6736228", "contact:website": "https://www.mantracoffee.hu/", "indoor_seating": "yes", "name": "Mantra", "opening_hours": "Mo-Fr 08:00-18:00; Sa,Su 09:00-18:00", "operator": "I. K\u00e1v\u00e9 Kft.", "outdoor_seating": "yes", "payment:credit_cards": "yes", "payment:debit_cards": "yes", "ref:google": "/g/11bbv128rm", "smoking": "no"}}, {"type": "node", "id": 2978184165, "lat": 47.4925454, "lon": 19.0606945, "tags": {"addr:city": "Budapest", "addr:housenumber": "15", "addr:postcode": "1053", "addr:street": "M\u00fazeum k\u00f6r\u00fat", "air_conditioning": "yes", "amenity": "cafe", "branch": "Pest", "brand": "Budapest Baristas", "capacity": "28", "contact:email": "office@budapestbaristas.hu", "contact:facebook": "61561052567709", "contact:foursquare": "551aa2bd498e66d71e60d7e9", "contact:phone": "+36 30 589 5065", "contact:tripadvisor": "8290062", "contact:website": "https://www.budapestbaristas.hu", "cuisine": "coffee_shop", "free_refill": "yes", "indoor_seating": "yes", "internet_access": "wlan", "name": "Budapest Baristas", "opening_hours": "Mo-Fr 07:30-19:00; Sa,Su 09:00-19:00", "operator": "Premium Promotion Kft.", "outdoor_seating": "yes", "owncup": "yes", "ref:google": "/g/11cm4b3hcc", "wheelchair": "no"}}, {"type": "node", "id": 3203867885, "lat": 47.4934894, "lon": 19.0599525, "tags": {"addr:city": "Budapest", "addr:housenumber": "5", "addr:postcode": "1053", "addr:street": "M\u00fazeum k\u00f6r\u00fat", "air_conditioning": "yes", "amenity": "cafe", "capacity": "10", "contact:email": "fekete@feketekv.hu", "contact:facebook": "528393397211661", "contact:foursquare": "557071c2498eb0a83bf4a526", "contact:phone": "+36 30 117 8807", "contact:tripadvisor": "4591239", "contact:website": "https://feketekv.hu/", "cuisine": "tea;cake;breakfast;coffee_shop", "dog": "yes", "drive_through": "no", "indoor_seating": "yes", "internet_access": "wlan", "level": "0", "name": "Fekete", "opening_hours": "Mo-Su 09:00-19:00", "operator": "Sombra Kft.", "outdoor_seating": "yes", "ref:google": "/g/1tdp_xkz", "smoking": "no", "takeaway": "yes", "toilets": "yes", "toilets:access": "customers", "wheelchair": "limited"}}, {"type": "node", "id": 3212852282, "lat": 47.4907944, "lon": 19.0593057, "tags": {"addr:city": "Budapest", "addr:housenumber": "2", "addr:postcode": "1053", "addr:street": "Kecskem\u00e9ti utca", "amenity": "cafe", "capacity": "30", "contact:email": "saycheesebudapest@gmail.com", "contact:facebook": "1853313428232573", "contact:foursquare": "5cc99392bcbf7a002c85afcf", "contact:phone": "+36 30 410 4931", "contact:tripadvisor": "17782305", "contact:website": "https://saycheese.hu/", "name": "Say Cheese", "opening_hours": "Mo-Su 09:00-19:00", "operator": "Pavatid Kft.", "outdoor_seating": "yes", "ref:google": "/g/11h1kqdm2w", "shop": "pastry", "takeaway": "yes", "toilets": "no"}}, {"type": "node", "id": 3212852283, "lat": 47.4904943, "lon": 19.0600371, "tags": {"addr:city": "Budapest", "addr:housenumber": "8", "addr:postcode": "1053", "addr:street": "Kecskem\u00e9ti utca", "amenity": "cafe", "capacity": "50", "contact:facebook": "100064027537507", "contact:tripadvisor": "23996048", "name": "Doppio Cocktail & Wine Bar", "opening_hours": "Tu-Sa 17:00-00:00", "operator": "Sziv\u00e1rv\u00e1ny No.2. Bt.", "ref:google": "/g/11s16vshk2", "takeaway": "yes", "toilets:wheelchair": "no", "wheelchair": "limited"}}, {"type": "node", "id": 3223701292, "lat": 47.4923833, "lon": 19.0562838, "tags": {"addr:city": "Budapest", "addr:housenumber": "4", "addr:postcode": "1053", "addr:street": "Ferenciek tere", "amenity": "cafe", "contact:facebook": "100063765121875", "cuisine": "waffle", "name": "Habos Gofri", "opening_hours": "Mo-Fr 12:00-21:00; Sa,Su 10:00-21:00", "ref:google": "/g/11b6gnzjdq", "takeaway": "only", "wheelchair": "yes"}}, {"type": "node", "id": 3275579888, "lat": 47.4908242, "lon": 19.0608572, "tags": {"addr:city": "Budapest", "addr:housenumber": "44", "addr:postcode": "1053", "addr:street": "Magyar utca", "alt_name": "Kort\u00e1rs Gal\u00e9ria \u00e9s K\u00e1v\u00e9z\u00f3", "amenity": "cafe", "capacity": "16", "contact:email": "info@kgaleria.hu", "contact:facebook": "100064034502429", "contact:phone": "+36 1 324 3855", "contact:website": "https://kgaleria.hu/", "name": "K Gal\u00e9ria", "name:en": "Gallery K", "name:hu": "K Gal\u00e9ria", "official_name": "K\u2502Kort\u00e1rs K\u00e9pz\u0151m\u0171v\u00e9szeti Ki\u00e1ll\u00edt\u00f3t\u00e9r", "official_name:en": "K\u2502Contemporary Exhibition Space", "opening_hours": "Tu-Th 10:00-16:00; Fr 14:00-18:00", "operator": "Qualiserve Kft.", "ref:google": "/g/11l4qj81c8", "tourism": "gallery"}}, {"type": "node", "id": 3275579895, "lat": 47.4929461, "lon": 19.0602011, "tags": {"addr:city": "Budapest", "addr:housenumber": "28", "addr:postcode": "1053", "addr:street": "Ferenczy Istv\u00e1n utca", "amenity": "cafe", "capacity": "35", "contact:email": "hello@zoska.hu", "contact:facebook": "604205679675771", "contact:foursquare": "53dc0590498efb39047d1f51", "contact:phone": "+36 70 623 9999", "contact:tripadvisor": "7213947", "contact:website": "https://zoska.hu/", "delivery": "yes", "diet:vegan": "no", "diet:vegetarian": "yes", "dog": "yes", "internet_access": "wlan", "level": "0", "name": "Zoska", "opening_hours": "Mo-Sa 07:00-16:00; Su 08:00-13:00", "operator": "Zoska Kft.", "ref:google": "/g/11bbwqj9x1", "strapline": "Reggeliz\u0151 k\u00e1v\u00e9z\u00f3", "takeaway": "yes", "toilets:wheelchair": "no", "wheelchair": "no"}}, {"type": "node", "id": 3279456679, "lat": 47.4908183, "lon": 19.0569132, "tags": {"addr:city": "Budapest", "addr:housenumber": "3", "addr:postcode": "1053", "addr:street": "Papn\u00f6velde utca", "amenity": "cafe", "capacity": "39", "check_date:opening_hours": "2022-01-02", "contact:email": "ahoy@ahoycafe.hu", "contact:facebook": "1492716954283722", "contact:phone": "+36 30 662 3572", "contact:tripadvisor": "7238233", "contact:website": "https://www.ahoycafe.hu/", "cuisine": "waffle;sandwich", "level": "0", "name": "Ahoy!", "opening_hours": "Mo-Su 11:00-21:00", "operator": "Gasztro Matr\u00f3z Kft.", "outdoor_seating": "no", "ref:google": "/g/1tf56nlh"}}, {"type": "node", "id": 3337480123, "lat": 47.4895111, "lon": 19.0584608, "tags": {"addr:city": "Budapest", "addr:housenumber": "3", "addr:postcode": "1053", "addr:street": "Fej\u00e9r Gy\u00f6rgy utca", "amenity": "cafe", "capacity": "40", "contact:email": "info@zoocafe.hu", "contact:facebook": "440982966005107", "contact:foursquare": "540f2429498e5a2b1e484c30", "contact:phone": "+36 30 791 3776", "contact:tripadvisor": "7097898", "contact:website": "https://zoocafe.hu/", "name": "Zoo Caf\u00e9", "opening_hours": "Mo-Su 10:00-21:00", "operator": "ZooCaf\u00e9 Kft.", "ref:google": "/g/11b638n1gr"}}, {"type": "node", "id": 3404671496, "lat": 47.488702, "lon": 19.0567911, "tags": {"addr:city": "Budapest", "addr:housenumber": "74", "addr:postcode": "1056", "addr:street": "V\u00e1ci utca", "amenity": "cafe", "brand": "Cafe Frei", "brand:wikidata": "Q105210995", "capacity": "48", "contact:email": "vaciutca@cafefrei.hu", "contact:facebook": "136916729696519", "contact:foursquare": "53242310498ee4a9c156e29c", "contact:tripadvisor": "6941520", "contact:website": "https://www.cafefrei.hu/", "cuisine": "coffee_shop", "diet:vegan": "yes", "diet:vegetarian": "yes", "indoor_seating": "yes", "name": "Cafe Frei", "opening_hours": "Mo-Su 09:00-19:00", "operator": "Star Coffee Kft.", "outdoor_seating": "yes", "ref:google": "/g/11bbrhr49y", "takeaway": "yes"}}, {"type": "node", "id": 3404671499, "lat": 47.4884387, "lon": 19.0570449, "tags": {"addr:city": "Budapest", "addr:housenumber": "78-80", "addr:postcode": "1056", "addr:street": "V\u00e1ci utca", "amenity": "cafe", "capacity": "3", "contact:facebook": "100078386847850", "contact:tripadvisor": "24020813", "contact:website": "https://pressopoint.hu/", "name": "Presso Point", "opening_hours": "Mo-Su 07:30-18:00", "operator": "PS Retail Services Kft.", "ref:google": "/g/11spwc0pxx"}}, {"type": "node", "id": 3410329177, "lat": 47.4895911, "lon": 19.0556946, "tags": {"addr:city": "Budapest", "addr:housenumber": "61", "addr:postcode": "1056", "addr:street": "V\u00e1ci utca", "amenity": "cafe", "capacity": "19", "contact:tripadvisor": "8511084", "cuisine": "sandwich", "name": "Le Petit Pain", "opening_hours": "Mo-Fr 09:00-19:00; Sa 09:00-15:00", "operator": "Peti-P\u00e1n Bt.", "ref:google": "/g/11c1xjrpcz", "toilets:wheelchair": "no", "wheelchair": "yes"}}, {"type": "node", "id": 3413002794, "lat": 47.4900969, "lon": 19.0551797, "tags": {"addr:city": "Budapest", "addr:housenumber": "53", "addr:postcode": "1056", "addr:street": "V\u00e1ci utca", "amenity": "cafe", "capacity": "4", "contact:email": "saskurtos@gmail.com", "contact:facebook": "100047370798383", "contact:phone": "+36 70 204 5922", "cuisine": "chimney_cake", "name": "Mennyei K\u00fcrt\u0151skal\u00e1cs", "opening_hours": "Mo-Su 11:00-21:00", "operator": "Mennyei K\u00fcrt\u0151skal\u00e1cs Kft.", "ref:google": "/g/11t3vfnt75", "shop": "pastry"}}, {"type": "node", "id": 3413002795, "lat": 47.4903052, "lon": 19.0549857, "tags": {"addr:city": "Budapest", "addr:housenumber": "51", "addr:postcode": "1056", "addr:street": "V\u00e1ci utca", "amenity": "cafe", "capacity": "8", "check_date": "2024-06-28", "contact:facebook": "100063564641638", "contact:foursquare": "5cbb1d19588e36002c00e514", "contact:phone": "+36 30 294 6964", "contact:tripadvisor": "12484229", "internet_access": "no", "level": "0", "name": "WaffaLab", "old_name": "Sock's", "opening_hours": "Mo-Tu,Th-Su 11:00-19:00; We off", "operator": "Fodor Vir\u00e1g", "payment:cash": "yes", "payment:credit_cards": "yes", "payment:debit_cards": "yes", "ref:google": "/g/11dzslm_6y"}}, {"type": "node", "id": 3654958225, "lat": 47.5026269, "lon": 19.0465973, "tags": {"addr:city": "Budapest", "addr:housenumber": "9", "addr:postcode": "1054", "addr:street": "Akad\u00e9mia utca", "amenity": "cafe", "capacity": "9", "contact:facebook": "100054309949197", "contact:foursquare": "5b938237cbcdee002ccb7ee1", "contact:tripadvisor": "19007884", "contact:website": "https://bencebozso89.wixsite.com/cafesanto", "indoor_seating": "yes", "name": "Caf\u00e9 Santo", "name:it": "Pazar", "opening_hours": "Mo-Fr 07:00-19:00; Sa,Su 08:00-19:00", "operator": "SilVa House Kft.", "outdoor_seating": "yes", "ref:google": "/g/11f9v2xppj"}}, {"type": "node", "id": 3663214588, "lat": 47.495508, "lon": 19.0576707, "tags": {"addr:city": "Budapest", "addr:housenumber": "22", "addr:postcode": "1052", "addr:street": "K\u00e1roly k\u00f6r\u00fat", "amenity": "cafe", "capacity": "8", "contact:email": "kontakt@kontaktcoffee.com", "contact:facebook": "430521516990463", "contact:tripadvisor": "4107754", "contact:website": "http://kontaktcoffee.com/", "cuisine": "coffee_shop", "dog": "yes", "name": "Kontakt", "opening_hours": "Mo-Fr 08:00-18:00; Sa 09:00-16:00", "operator": "Prospero Kft.", "ref:google": "/g/12hlm66jt", "wheelchair": "no", "wheelchair:description": "two steps to cafe, but seating on cobbled seat outside."}}, {"type": "node", "id": 3669924569, "lat": 47.4936761, "lon": 19.0538774, "tags": {"addr:city": "Budapest", "addr:housenumber": "4", "addr:postcode": "1052", "addr:street": "Haris k\u00f6z", "amenity": "cafe", "capacity": "42", "contact:email": "budapestharis@waffini.com", "contact:facebook": "100083313580513", "contact:phone": "+36 20 662 8082", "contact:tripadvisor": "24091174", "contact:website": "https://www.waffini.com/", "name": "Waffini", "opening_hours": "Mo-Su 11:00-22:00", "operator": "KDMN Kft.", "ref:google": "/g/11sy71r92n"}}, {"type": "node", "id": 3820198649, "lat": 47.4910336, "lon": 19.0532097, "tags": {"addr:city": "Budapest", "addr:housenumber": "5", "addr:postcode": "1056", "addr:street": "Ir\u00e1nyi utca", "amenity": "cafe", "capacity": "30", "contact:email": "queenbeethecoffeebar@gmail.com", "contact:facebook": "100077853523781", "contact:phone": "+36 30 446 9967", "name": "Queen Bee", "opening_hours": "Mo-Fr 08:00-16:30", "operator": "Queen Bee Caf\u00e9 Kft.", "ref:google": "/g/11qby2sf3w"}}, {"type": "node", "id": 3833558016, "lat": 47.4893637, "lon": 19.0536483, "tags": {"addr:city": "Budapest", "addr:housenumber": "19", "addr:postcode": "1056", "addr:street": "Belgr\u00e1d rakpart", "amenity": "cafe", "capacity": "45", "contact:email": "kahwabudapest@gmail.com", "contact:facebook": "100063594278839", "contact:foursquare": "4d31bb778c42a1cdec70e15d", "contact:phone": "+36 50 120 8994", "contact:tripadvisor": "6375965", "name": "Kahwa", "opening_hours": "Mo-Fr 08:00-20:00; Sa,Su 09:00-20:00", "operator": "Herm\u00e9sz'11 Bt.", "outdoor_seating": "yes", "ref:google": "/g/1tgcwvd4"}}, {"type": "node", "id": 3929194012, "lat": 47.4972104, "lon": 19.0537531, "tags": {"addr:city": "Budapest", "addr:housenumber": "23", "addr:postcode": "1052", "addr:street": "De\u00e1k Ferenc utca", "air_conditioning": "yes", "amenity": "cafe", "brand": "Starbucks", "brand:wikidata": "Q37158", "capacity": "47", "contact:facebook": "922278224523078", "contact:foursquare": "4f89d5f24fc69a9a7d07ed32", "contact:phone": "+36 70 682 1908", "contact:tripadvisor": "5494172", "contact:website": "https://www.starbucks.hu/", "cuisine": "coffee_shop", "diet:vegan": "yes", "diet:vegetarian": "yes", "indoor_seating": "yes", "name": "Starbucks", "official_name": "Starbucks Coffee", "opening_hours": "Mo-Su 07:00-22:00", "operator": "AmRest K\u00e1v\u00e9z\u00f3 Kft.", "outdoor_seating": "yes", "ref:google": "/g/11b5pj661h", "smoking": "no", "takeaway": "yes", "wheelchair": "limited"}}, {"type": "node", "id": 4008584962, "lat": 47.504561, "lon": 19.0535386, "tags": {"addr:city": "Budapest", "addr:housenumber": "3", "addr:postcode": "1054", "addr:street": "Nagys\u00e1ndor J\u00f3zsef utca", "amenity": "cafe", "branch": "City Center", "capacity": "3", "contact:email": "demmersnador@gmail.com", "contact:facebook": "100063739156583", "contact:phone": "+36 1 332 0130", "contact:website": "https://www.demmers.hu/", "name": "Demmers Teahouse", "opening_hours": "Mo-Fr 10:00-18:00; Sa 10:00-16:00", "operator": "Teatenger Kft.", "ref:google": "/g/11bwpcczcv", "shop": "tea"}}, {"type": "node", "id": 4008618296, "lat": 47.4937467, "lon": 19.0547456, "tags": {"addr:city": "Budapest", "addr:housenumber": "6", "addr:postcode": "1052", "addr:street": "Pet\u0151fi S\u00e1ndor utca", "amenity": "cafe", "capacity": "20", "check_date:opening_hours": "2024-12-18", "contact:email": "rendeles@bubutea.hu", "contact:facebook": "267032680055347", "contact:foursquare": "4fba872ca17c8f7171dbe4d4", "contact:phone": "+36 1 308 5416", "contact:tripadvisor": "teahouse", "contact:website": "https://www.bubutea.hu/", "cuisine": "teahouse;asian", "name": "Bubu Bubble Tea", "opening_hours": "Mo-Fr 10:00-21:00; Sa,Su 11:00-20:00", "operator": "Hungarodavi Kft.", "ref:google": "/g/11bx7z9ts9", "smoking": "outside", "wheelchair": "limited"}}, {"type": "node", "id": 4050213940, "lat": 47.5094615, "lon": 19.0464585, "tags": {"addr:city": "Budapest", "addr:housenumber": "18", "addr:postcode": "1055", "addr:street": "Kossuth Lajos t\u00e9r", "amenity": "cafe", "capacity": "40", "contact:email": "smuz@smuzcafe.hu", "contact:facebook": "689624437777341", "contact:foursquare": "53627005498ec0bb1893ecd4", "contact:phone": "+36 30 922 0850", "contact:tripadvisor": "6591379", "contact:website": "http://www.smuzcafe.hu", "indoor_seating": "yes", "internet_access": "wlan", "internet_access:fee": "no", "name": "Sm\u00faz Caf\u00e9", "opening_hours": "Mo-Su 10:00-21:00", "operator": "Smuzvir\u00e1gneked Kft.", "outdoor_seating": "yes", "ref:google": "/g/11b6bf5nbj", "smoking": "outside", "toilets": "yes", "toilets:access": "customers", "toilets:wheelchair": "limited", "wheelchair": "yes"}}, {"type": "node", "id": 4118559798, "lat": 47.5089013, "lon": 19.0480867, "tags": {"addr:city": "Budapest", "addr:housenumber": "1", "addr:postcode": "1055", "addr:street": "Falk Miksa utca", "amenity": "cafe", "capacity": "24", "contact:facebook": "100040555489703", "contact:foursquare": "5018d5abe4b02547ce8d15f4", "contact:phone": "+36 20 384 4194", "contact:tripadvisor": "12099040", "name": "Baristum", "opening_hours": "Mo-Fr 07:00-19:00", "operator": "Edutus Nonprofit K\u00f6zhaszn\u00fa Zrt.", "ref:google": "/g/11bx1s42gp"}}, {"type": "node", "id": 4118559799, "lat": 47.5092194, "lon": 19.0480749, "tags": {"addr:city": "Budapest", "addr:housenumber": "5", "addr:postcode": "1055", "addr:street": "Falk Miksa utca", "amenity": "cafe", "capacity": "35", "contact:facebook": "100057467362227", "contact:phone": "+36 20 962 2713", "name": "Sejribizli", "opening_hours": "Mo-Fr 11:00-21:00; Sa 16:00-21:00", "operator": "Sejribizli Kft.", "ref:google": "/g/11htb__98h"}}, {"type": "node", "id": 4120659394, "lat": 47.5115329, "lon": 19.0517494, "tags": {"addr:city": "Budapest", "addr:housenumber": "22", "addr:postcode": "1054", "addr:street": "Szemere utca", "amenity": "cafe", "capacity": "2", "contact:email": "hello.cophi@gmail.com", "contact:facebook": "100068064513494", "contact:phone": "+36 30 274 4030", "name": "Co'phi Cafe", "opening_hours": "Mo-Fr 07:30-18:00; Sa 08:00-14:00", "operator": "Duo Fodr\u00e1sz Kft.", "ref:google": "/g/11nn_pwh9z"}}, {"type": "node", "id": 4138568504, "lat": 47.504472, "lon": 19.052746, "tags": {"addr:city": "Budapest", "addr:housenumber": "9", "addr:postcode": "1054", "addr:street": "Hold utca", "amenity": "cafe", "capacity": "5", "contact:email": "info@nemsutibisztro.com", "contact:facebook": "165326166836452", "contact:foursquare": "50c33e78e4b047e9d3da9929", "contact:phone": "+36 30 904 0186", "contact:tripadvisor": "5414857", "contact:website": "http://nemsutibisztro.com/", "diet:vegan": "yes", "diet:vegetarian": "yes", "name": "Nems\u00fcti Bisztr\u00f3", "opening_hours": "Mo-Th 09:00-17:00; Fr 09:00-15:00", "operator": "Kolor Film Kft.", "ref:google": "/g/11b7288sw4"}}, {"type": "node", "id": 4181196790, "lat": 47.4955523, "lon": 19.0577189, "tags": {"addr:city": "Budapest", "addr:housenumber": "22", "addr:postcode": "1052", "addr:street": "K\u00e1roly k\u00f6r\u00fat", "amenity": "cafe", "capacity": "18", "contact:email": "food@szimply.com", "contact:facebook": "1010720012299474", "contact:foursquare": "571780ec498ed9d6737175f9", "contact:tripadvisor": "10214929", "cuisine": "breakfast", "diet:vegan": "yes", "internet_access": "wlan", "name": "Szimply", "opening_hours": "Mo-Sa 09:00-16:00", "operator": "Szimply Food Kft.", "ref:google": "/g/11cn2m6rzv", "wheelchair": "no"}}, {"type": "node", "id": 4193992913, "lat": 47.4951623, "lon": 19.0591048, "tags": {"addr:city": "Budapest", "addr:housenumber": "12", "addr:postcode": "1052", "addr:street": "K\u00e1roly k\u00f6r\u00fat", "amenity": "cafe", "capacity": "94", "contact:email": "moncheribudapest@gmail.com", "contact:facebook": "100063850841842", "contact:foursquare": "5b81a28a2aff31002c59ac2e", "contact:phone": "+36 70 676 7117", "contact:tripadvisor": "17431409", "cuisine": "coffee_shop", "indoor_seating": "yes", "internet_access": "wlan", "internet_access:fee": "no", "internet_access:ssid": "MON CHERI", "name": "Mon Ch\u00e9ri", "opening_hours": "Mo-Sa 07:00-23:00; Su 07:00-19:00", "operator": "Mon Cheri Kft.", "outdoor_seating": "yes", "payment:cash": "yes", "payment:credit_cards": "yes", "payment:debit_cards": "yes", "ref:google": "/g/11f9cs_j_m", "takeaway": "yes", "wheelchair": "limited"}}, {"type": "node", "id": 4336778493, "lat": 47.4925646, "lon": 19.0561546, "tags": {"addr:city": "Budapest", "addr:housenumber": "3", "addr:postcode": "1053", "addr:street": "Ferenciek tere", "air_conditioning": "yes", "amenity": "cafe", "capacity": "50", "contact:email": "info@madalcafe.hu", "contact:facebook": "376691899105414", "contact:foursquare": "55bd02c4498e0546ea2a93f9", "contact:phone": "+36 70 945 8279", "contact:tripadvisor": "8486754", "contact:website": "https://madalcafe.hu/", "cuisine": "cake;coffee_shop", "indoor_seating": "yes", "internet_access": "wlan", "name": "Madal Cafe", "opening_hours": "Mo-Fr 07:30-19:30; Sa,Su 08:30-19:30", "operator": "Discovery Bliss Kft.", "outdoor_seating": "yes", "payment:credit_cards": "yes", "payment:debit_cards": "yes", "ref:google": "/g/11c3sqf0m8", "smoking": "outside", "toilets:wheelchair": "no", "wheelchair": "yes"}}, {"type": "node", "id": 4491548429, "lat": 47.4927682, "lon": 19.052515, "tags": {"addr:city": "Budapest", "addr:housenumber": "1", "addr:postcode": "1052", "addr:street": "Piarista k\u00f6z", "amenity": "cafe", "capacity": "23", "contact:email": "info@kuglof.hu", "contact:facebook": "100063762931631", "contact:foursquare": "4d61f93d5b276dcb7b1f2ac6", "contact:phone": "+36 30 948 1805", "contact:tripadvisor": "4051288", "contact:website": "https://www.kuglof.hu/", "dog": "yes", "name": "Kugl\u00f3f", "opening_hours": "Mo-Fr 08:00-16:00; Sa 09:00-19:00; Sa 09:00-16:00", "operator": "Barnab\u00e1sp\u00e9k Kft.", "ref:google": "/g/11fhr1gvj6"}}, {"type": "node", "id": 4564697102, "lat": 47.4958257, "lon": 19.0505548, "tags": {"addr:city": "Budapest", "addr:housenumber": "3-5", "addr:postcode": "1052", "addr:street": "De\u00e1k Ferenc utca", "amenity": "cafe", "capacity": "50", "contact:email": "vaci1.vanilia@szamos.hu", "contact:facebook": "227991637326162", "contact:foursquare": "4ed4a95f99119575fe67ce75", "contact:phone": "+36 30 570 5973", "contact:tripadvisor": "2508074", "contact:website": "https://www.szamos.hu/uzletek/szamos-gourmet-haz", "cuisine": "coffee_shop;breakfast;cake;sandwich;hungarian;fine_dining;tea", "internet_access": "wlan", "name": "Szamos Gourmet H\u00e1z", "opening_hours": "Mo-Su 10:00-20:00", "operator": "Van\u00edlia Cukr\u00e1sz Kft.", "ref:google": "/g/1pw3wwy9g", "shop": "pastry", "wheelchair": "no"}}, {"type": "node", "id": 4606794779, "lat": 47.5000995, "lon": 19.0510289, "tags": {"addr:city": "Budapest", "addr:housenumber": "6", "addr:postcode": "1051", "addr:street": "Okt\u00f3ber 6. utca", "amenity": "cafe", "capacity": "14", "check_date:opening_hours": "2025-01-26", "contact:email": "info@katonenifinomsagai.hu", "contact:facebook": "https://www.facebook.com/katonenifinomsagai", "contact:foursquare": "5caf5e06446ea6002cc75cd1", "contact:phone": "+36 20 969 5352", "contact:tripadvisor": "17333214", "contact:website": "https://katonenifinomsagai.hu/", "cuisine": "chimney_cake", "name": "Kat\u00f3 N\u00e9ni Finoms\u00e1gai", "opening_hours": "Mo-Su 11:00-22:00", "operator": "Hungarikum Tanoda Kft.", "ref:google": "/g/11h0vz17vh", "shop": "pastry"}}, {"type": "node", "id": 4656156889, "lat": 47.492763, "lon": 19.0529842, "tags": {"addr:city": "Budapest", "addr:housenumber": "31", "addr:postcode": "1052", "addr:street": "V\u00e1ci utca", "amenity": "cafe", "capacity": "14", "contact:email": "info@kurtoskalacs.com", "contact:facebook": "100063576759190", "contact:foursquare": "4d849b73194a88bf0ae993a7", "contact:phone": "+36 1 407 2314", "contact:tripadvisor": "2463232", "contact:website": "http://www.kurtoskalacs.com/", "cuisine": "chimney_cake;coffee;ice_cream", "internet_access": "wlan", "name": "Moln\u00e1r's K\u00fcrt\u0151skal\u00e1cs", "opening_hours": "Mo-Su 09:00-20:00", "operator": "MokkCaf\u00e9 Kft.", "ref:google": "/g/1tcztqr0", "shop": "pastry"}}, {"type": "node", "id": 4724804145, "lat": 47.4951473, "lon": 19.0490225, "tags": {"addr:city": "Budapest", "addr:housenumber": "4", "addr:postcode": "1051", "addr:street": "Ap\u00e1czai Csere J\u00e1nos utca", "amenity": "cafe", "brand": "Starbucks", "brand:wikidata": "Q37158", "capacity": "80", "contact:facebook": "1983414575277118", "contact:foursquare": "59a025addee7702925263b2e", "contact:mobile": "+36 70 682 1966", "contact:tripadvisor": "17456205", "contact:website": "https://www.starbucks.hu/", "cuisine": "coffee_shop", "indoor_seating": "yes", "name": "Starbucks", "official_name": "Starbucks Coffee", "opening_hours": "Mo-Th 08:00-20:00; Fr-Su 09:00-21:00", "operator": "AmRest K\u00e1v\u00e9z\u00f3 Kft.", "outdoor_seating": "yes", "ref:google": "/g/11f0wl0vxd", "smoking": "outside", "takeaway": "yes", "wheelchair": "yes"}}, {"type": "node", "id": 4933366521, "lat": 47.5037518, "lon": 19.0528896, "tags": {"addr:city": "Budapest", "addr:housenumber": "3", "addr:postcode": "1054", "addr:street": "Hold utca", "amenity": "cafe", "capacity": "14", "check_date:opening_hours": "2024-02-28", "contact:email": "info@artizan.hu", "contact:facebook": "926697054068558", "contact:foursquare": "55b5e473498e8431c3fdaf69", "contact:phone": "+36 30 856 5122", "contact:tripadvisor": "8487229", "contact:website": "https://artizan.hu/", "name": "Artiz\u00e1n", "opening_hours": "Mo-Fr 07:00-18:00; Sa 07:30-13:30", "operator": "Bio Artiz\u00e1n Kft.", "ref:google": "/g/11ckqs_825", "shop": "bakery"}}, {"type": "node", "id": 5047018728, "lat": 47.493851, "lon": 19.0534726, "tags": {"addr:city": "Budapest", "addr:housenumber": "3", "addr:postcode": "1052", "addr:street": "P\u00e1rizsi utca", "amenity": "cafe", "contact:email": "parizsi@szamos.hu", "contact:facebook": "204217556280319", "contact:foursquare": "4c00f2d19a950f47995408c6", "contact:phone": "+36 30 535 0259", "contact:tripadvisor": "2361090", "contact:website": "https://www.szamos.hu/uzletek/marcipan-cukraszda", "name": "Szamos Cukr\u00e1szda", "opening_hours": "Mo-Su 10:00-19:00", "operator": "Van\u00edlia Cukr\u00e1sz Kft.", "ref:google": "/g/1ts3j_bx", "shop": "pastry"}}, {"type": "node", "id": 5123359422, "lat": 47.4999756, "lon": 19.0523681, "tags": {"addr:city": "Budapest", "addr:housenumber": "7", "addr:postcode": "1051", "addr:street": "Sas utca", "amenity": "cafe", "capacity": "12", "check_date:opening_hours": "2024-06-18", "contact:email": "macaron@chezdodo.hu", "contact:facebook": "100064692848539", "contact:foursquare": "5496f3b4498e84ed82fc544f", "contact:phone": "+36 70 341 3845", "contact:tripadvisor": "7595426", "contact:website": "https://www.chezdodo.hu/", "cuisine": "french", "name": "Chez Dodo", "opening_hours": "Mo 11:00-20:00; Tu-Sa 10:00-20:00; Su 10:00-19:00", "operator": "Macaron \u00e9s t\u00e1rsai Kft.", "ref:google": "/g/11b6zr8j1x", "shop": "pastry"}}, {"type": "node", "id": 5223372922, "lat": 47.4942588, "lon": 19.0584636, "tags": {"addr:city": "Budapest", "addr:housenumber": "2", "addr:postcode": "1052", "addr:street": "Semmelweis utca", "alt_name": "Puskin K\u00e1v\u00e9h\u00e1z", "amenity": "cafe", "capacity": "82", "contact:email": "restropuskin@gmail.com", "contact:facebook": "100053669985914", "contact:foursquare": "4c581bb76201e21e27fde56f", "contact:phone": "+36 20 974 0045", "description": "Puskin Mozi egykori k\u00e1v\u00e9z\u00f3ja.", "name": "Restro Puskin", "opening_hours": "Mo-Su 11:00-00:00", "operator": "Film-Link Kft.", "ref:google": "/g/11bw2gkrrn"}}, {"type": "node", "id": 5295923907, "lat": 47.5008402, "lon": 19.0491436, "tags": {"addr:city": "Budapest", "addr:housenumber": "14", "addr:postcode": "1051", "addr:street": "N\u00e1dor utca", "amenity": "cafe", "capacity": "50", "check_date:opening_hours": "2024-03-22", "contact:email": "info@kavetarsasag.hu", "contact:facebook": "644698722244099", "contact:foursquare": "57629afa498eff2dcb6355fc", "contact:phone": "+36 30 208 2203", "contact:tripadvisor": "12033916", "contact:website": "https://www.kavetarsasag.hu/", "free_refill": "yes", "name": "K\u00e1v\u00e9t\u00e1rsas\u00e1g", "opening_hours": "Mo-Fr 08:00-18:00; Sa 09:00-18:00", "operator": "Invitone Kft.", "payment:cash": "yes", "payment:contactless": "yes", "payment:mastercard": "yes", "ref:google": "/g/1q6650xjg", "shop": "coffee"}}, {"type": "node", "id": 5351496622, "lat": 47.4914827, "lon": 19.0538579, "tags": {"addr:city": "Budapest", "addr:housenumber": "41/b", "addr:postcode": "1056", "addr:street": "V\u00e1ci utca", "amenity": "cafe", "capacity": "48", "contact:facebook": "100066384787229", "contact:tripadvisor": "24185086", "name": "Mia's Bakery", "opening_hours": "Mo-Su 08:00-21:00", "operator": "Mias Bakery Kft.", "ref:google": "/g/11p103jb6p", "shop": "pastry"}}, {"type": "node", "id": 5366069931, "lat": 47.5127648, "lon": 19.0484414, "tags": {"addr:city": "Budapest", "addr:housenumber": "3", "addr:postcode": "1055", "addr:street": "Szent Istv\u00e1n k\u00f6r\u00fat", "amenity": "cafe", "cuisine": "bubble_tea", "name": "Biu!Tea", "opening_hours": "Mo 11:00-21:00; Tu-Su 10:00-21:00"}}, {"type": "node", "id": 5405191343, "lat": 47.4970105, "lon": 19.0498503, "tags": {"addr:city": "Budapest", "addr:housenumber": "1", "addr:postcode": "1051", "addr:street": "Dorottya utca", "amenity": "cafe", "capacity": "35", "contact:email": "hello@edisonjupiter.com", "contact:facebook": "108149718674214", "contact:phone": "+36 70 777 3274", "name": "Edison&Jupiter", "opening_hours": "Mo-Su 09:00-18:00", "operator": "Lilimo 2017 Kft.", "wheelchair": "no"}}, {"type": "node", "id": 5437073321, "lat": 47.5074167, "lon": 19.0491333, "tags": {"addr:city": "Budapest", "addr:housenumber": "4", "addr:postcode": "1054", "addr:street": "Alkotm\u00e1ny utca", "amenity": "cafe", "capacity": "100", "check_date": "2023-04-23", "contact:email": "info@madalcafe.hu", "contact:facebook": "376691899105414", "contact:foursquare": "58d8eee99435a979b83b5ed0", "contact:phone": "+36 20 534 7614", "contact:tripadvisor": "12276817", "contact:website": "https://madalcafe.hu/", "indoor_seating": "yes", "internet_access": "wlan", "name": "Madal Cafe", "opening_hours": "Mo-Fr 07:30-19:30; Sa,Su 08:30-19:30", "operator": "Discovery Bliss Kft.", "outdoor_seating": "yes", "ref:google": "/g/11c70g_zjy"}}, {"type": "node", "id": 5599339388, "lat": 47.5024942, "lon": 19.052867, "tags": {"addr:city": "Budapest", "addr:housenumber": "17", "addr:postcode": "1051", "addr:street": "Hercegpr\u00edm\u00e1s utca", "amenity": "cafe", "capacity": "40", "contact:email": "info@blueberrybrunch.com", "contact:facebook": "100090864284946", "contact:mobile": "+36 70 434 2726", "contact:website": "https://www.blueberrybrunch.com/", "name": "Blueberry Brunch", "opening_hours": "Mo-Fr 08:00-17:00; Sa,Su 09:00-17:00", "wheelchair": "no"}}, {"type": "node", "id": 5646514821, "lat": 47.5034718, "lon": 19.0536654, "tags": {"addr:city": "Budapest", "addr:housenumber": "6", "addr:postcode": "1054", "addr:street": "Bank utca", "amenity": "cafe", "capacity": "8", "check_date": "2022-09-07", "contact:email": "info@thegoatherder.hu", "contact:facebook": "100063745355995", "contact:phone": "+36 30 587 4038", "contact:website": "https://www.thegoatherder.hu/", "name": "The Goat Herder", "opening_hours": "Mo-Su 08:00-16:00", "operator": "The Goat Herder Kft.", "ref:google": "/g/11swrt0zt_", "start_date": "2015"}}, {"type": "node", "id": 5661814874, "lat": 47.4886365, "lon": 19.0580546, "tags": {"addr:city": "Budapest", "addr:housenumber": "33", "addr:postcode": "1053", "addr:street": "Veres P\u00e1ln\u00e9 utca", "amenity": "cafe", "capacity": "42", "contact:email": "hello@doubleshot.hu", "contact:facebook": "100063580899164", "contact:phone": "+36 70 364 2121", "contact:tripadvisor": "14122220", "contact:website": "https://doubleshot.shop/", "cuisine": "coffee_shop", "diet:vegetarian": "yes", "indoor_seating": "yes", "name": "Double Shot", "opening_hours": "Mo-Su 08:30-18:00", "operator": "Vadiart Kft.", "outdoor_seating": "yes", "ref:google": "/g/11f61f9nl1", "takeaway": "yes"}}, {"type": "node", "id": 5713323801, "lat": 47.492632, "lon": 19.0551043, "tags": {"addr:city": "Budapest", "addr:housenumber": "2", "addr:postcode": "1053", "addr:street": "Ferenciek tere", "amenity": "cafe", "brand": "Starbucks", "brand:wikidata": "Q37158", "brand:wikipedia": "en:Starbucks", "capacity": "30", "check_date": "2023-03-22", "contact:email": "husbbudapest.ferenciektere@amrest.eu", "contact:facebook": "336553050600704", "contact:foursquare": "5b6456e73c858d00398282d2", "contact:phone": "+36 70 682 1983", "contact:website": "https://www.starbucks.hu/", "cuisine": "coffee_shop", "diet:vegetarian": "yes", "indoor_seating": "yes", "internet_access": "wlan", "level": "0", "name": "Starbucks", "official_name": "Starbucks Coffee", "opening_hours": "08:00-19:00", "operator": "AmRest K\u00e1v\u00e9z\u00f3 Kft.", "outdoor_seating": "yes", "payment:contactless": "yes", "payment:credit_cards": "yes", "payment:debit_cards": "yes", "payment:mastercard": "yes", "payment:visa": "yes", "payment:visa_electron": "yes", "ref:google": "/g/11f5px9tkd", "takeaway": "yes", "wheelchair": "no"}}, {"type": "node", "id": 5860645361, "lat": 47.5021322, "lon": 19.0495496, "tags": {"addr:city": "Budapest", "addr:housenumber": "16", "addr:postcode": "1051", "addr:street": "Arany J\u00e1nos utca", "amenity": "cafe", "capacity": "10", "check_date:opening_hours": "2024-06-02", "contact:email": "info@atable.hu", "contact:facebook": "101998654761474", "contact:foursquare": "5040668ee4b055ecd25b01ed", "contact:phone": "+36 1 331 9596", "contact:tripadvisor": "7046520", "contact:website": "https://atable.hu/", "name": "\u00e0 table!", "opening_hours": "Mo-Fr 07:00-17:00; Sa,Su 08:00-17:00", "operator": "A Table Kft.", "payment:card": "yes", "payment:cash": "yes", "payment:credit_cards": "yes", "ref:google": "/g/1q5gmp1lt"}}, {"type": "node", "id": 5921893985, "lat": 47.4921986, "lon": 19.0552282, "tags": {"addr:city": "Budapest", "addr:housenumber": "4-6", "addr:postcode": "1053", "addr:street": "Veres P\u00e1ln\u00e9 utca", "amenity": "cafe", "capacity": "40", "contact:email": "moncafebp@gmail.com", "contact:facebook": "100063765901352", "contact:foursquare": "5a684abdb8fd9d5f5112c896", "contact:tripadvisor": "14075912", "diet:vegetarian": "yes", "indoor_seating": "yes", "name": "Mon Cafe", "opening_hours": "Mo-Fr 07:30-19:00; Sa,Su 09:00-19:00", "operator": "Pharmacoop Sz\u00f6vetkezet", "outdoor_seating": "yes", "ref:google": "/g/11h9zvg5bs", "wheelchair": "no"}}, {"type": "node", "id": 6133441285, "lat": 47.4923918, "lon": 19.0528392, "tags": {"addr:city": "Budapest", "addr:housenumber": "1", "addr:postcode": "1052", "addr:street": "Piarista k\u00f6z", "amenity": "cafe", "capacity": "241", "check_date": "2023-10-12", "contact:email": "info@haromhollo.hu", "contact:facebook": "317944683555", "contact:foursquare": "5a15b544ad910e64dcf41e70", "contact:phone": "+36 70 784 6614", "contact:tripadvisor": "17347520", "contact:website": "https://www.haromhollo.hu/", "description": "A pinceszinten sz\u00ednh\u00e1zi esetenk\u00e9nt el\u0151ad\u00e1sok vannak.", "internet_access": "wlan", "name": "H\u00e1rom Holl\u00f3", "opening_hours": "Mo-Su 12:00-00:00", "operator": "H\u00e1rom Holl\u00f3 K\u00e1v\u00e9h\u00e1z Kft.", "ref:google": "/g/11f2w5x186", "wheelchair": "yes"}}, {"type": "node", "id": 6424045485, "lat": 47.4948872, "lon": 19.0510034, "tags": {"addr:city": "Budapest", "addr:housenumber": "6", "addr:postcode": "1052", "addr:street": "Aranyk\u00e9z utca", "air_conditioning": "yes", "amenity": "cafe", "capacity": "35", "contact:email": "hello@shakerato.hu", "contact:facebook": "100027932425800", "contact:foursquare": "5b03f2a0a22db7002c0147f6", "contact:phone": "+36 30 984 8797", "contact:tripadvisor": "13620509", "contact:website": "https://shakerato.hu/", "cuisine": "sandwich;breakfast;cake;coffee_shop", "indoor_seating": "yes", "name": "Caffe Shakerato", "opening_hours": "Mo-Th 08:00-17:00; Fr 08:00-15:00", "operator": "Comester Kft.", "outdoor_seating": "yes", "ref:google": "/g/11ghn7wq16", "wheelchair": "yes"}}, {"type": "node", "id": 6770710786, "lat": 47.5057455, "lon": 19.054728, "tags": {"addr:city": "Budapest", "addr:housenumber": "56", "addr:postcode": "1054", "addr:street": "Bajcsy-Zsilinszky \u00fat", "amenity": "cafe", "capacity": "10", "contact:facebook": "101629022662533", "contact:phone": "+36 1 460 8941", "cuisine": "donut", "name": "Donuterie", "opening_hours": "Mo-Fr 08:30-20:00; Sa 10:00-20:00; Su 10:00-19:00", "operator": "Mammadoff@One Kft.", "ref:google": "/g/11t7xxg9gy", "shop": "pastry"}}, {"type": "node", "id": 6770710916, "lat": 47.5074794, "lon": 19.0529121, "tags": {"addr:city": "Budapest", "addr:housenumber": "21", "addr:postcode": "1054", "addr:street": "Alkotm\u00e1ny utca", "amenity": "cafe", "capacity": "42", "contact:email": "sixletter.coffee@gmail.com", "contact:facebook": "100028848416672", "contact:foursquare": "5c9ba767a92d98003955273e", "contact:phone": "+36 20 621 6666", "contact:tripadvisor": "17353936", "contact:website": "https://sixlettercoffee.com/", "name": "SixLetter", "opening_hours": "Mo-Fr 07:30-18:00; Sa,Su 09:00-18:00", "operator": "Hellas Lavrio Kft.", "outdoor_seating": "yes", "ref:google": "/g/11h0yrkpdk"}}, {"type": "node", "id": 6778119031, "lat": 47.502856, "lon": 19.0539473, "tags": {"addr:city": "Budapest", "addr:housenumber": "3", "addr:postcode": "1054", "addr:street": "Podmaniczky Frigyes t\u00e9r", "amenity": "cafe", "brand": "Starbucks", "brand:wikidata": "Q37158", "capacity": "42", "check_date": "2023-07-04", "contact:email": "starbuckshungary@amrest.eu", "contact:facebook": "105385392843571", "contact:website": "https://www.starbucks.hu/", "cuisine": "coffee_shop", "internet_access": "wlan", "internet_access:fee": "no", "internet_access:ssid": "Starbucks HotSpot", "name": "Starbucks", "official_name": "Starbucks Coffee", "opening_hours": "Mo-Fr 07:00-20:00; Sa-Su 09:00-19:00", "operator": "AmRest K\u00e1v\u00e9z\u00f3 Kft.", "outdoor_seating": "yes", "payment:credit_cards": "yes", "payment:debit_cards": "yes", "payment:mastercard": "yes", "payment:visa": "yes", "ref:google": "/g/11rv97gbc3", "takeaway": "yes"}}, {"type": "node", "id": 7050168780, "lat": 47.4953714, "lon": 19.0574736, "tags": {"addr:city": "Budapest", "addr:housenumber": "19", "addr:postcode": "1052", "addr:street": "Semmelweis utca", "amenity": "cafe", "capacity": "50", "contact:email": "info@kervend.hu", "contact:facebook": "173540216008855", "contact:foursquare": "4ca4ed15a6e08cfa29906c94", "contact:phone": "+36 1 787 9305", "contact:tripadvisor": "3916444", "level": "0", "name": "Fah\u00e9j K\u00e1v\u00e9z\u00f3", "opening_hours": "Mo-Sa 16:00-24:00", "operator": "Kervend 2006 Szolg\u00e1ltat\u00f3 Kft.", "operator:addr": "1077 Budapest, Izabella utca 36-38. fszt. 15.", "ref:HU:vatin": "13784256-2-42", "ref:google": "/g/11b6rzrnjn", "ref:vatin": "HU13784256", "smoking": "no", "toilets": "yes", "toilets:access": "customers"}}, {"type": "node", "id": 7090590568, "lat": 47.5018146, "lon": 19.0492689, "tags": {"addr:city": "Budapest", "addr:housenumber": "19", "addr:postcode": "1051", "addr:street": "N\u00e1dor utca", "amenity": "cafe", "capacity": "20", "check_date": "2024-10-21", "contact:email": "delibabainfo@gmail.com", "contact:facebook": "100053889686071", "contact:foursquare": "53e37c28498e03e4b6b5696f", "contact:phone": "+36 30 250 5169", "contact:tripadvisor": "7011330", "contact:website": "https://www.delibaba.hu/", "indoor_seating": "yes", "name": "Delibaba", "opening_hours": "Mo-Fr 11:00-15:00", "operator": "N\u00e1dor K\u00e1v\u00e9h\u00e1z Kft.", "outdoor_seating": "yes", "ref:google": "/g/11b66c1gm6"}}, {"type": "node", "id": 7204272241, "lat": 47.4936098, "lon": 19.0541734, "tags": {"addr:city": "Budapest", "addr:housenumber": "3", "addr:postcode": "1052", "addr:street": "Haris k\u00f6z", "amenity": "cafe", "capacity": "30", "contact:email": "budapest@herbar.net", "contact:facebook": "100063749013054", "contact:foursquare": "5c02b84160255e002c95e372", "contact:phone": "+36 30 176 7010", "contact:tripadvisor": "17464815", "contact:website": "https://herbar.net/", "name": "HerBar", "opening_hours": "Mo-Su 08:30-20:30", "operator": "Euro 360 International Kft.", "ref:google": "/g/11g24vgtyf"}}, {"type": "node", "id": 7215117085, "lat": 47.4902313, "lon": 19.0600864, "tags": {"addr:city": "Budapest", "addr:housenumber": "11", "addr:postcode": "1053", "addr:street": "Kecskem\u00e9ti utca", "amenity": "cafe", "capacity": "8", "check_date": "2023-03-20", "contact:email": "normapekseg@gmail.com", "contact:facebook": "100046925089912", "contact:phone": "+36 1 614 8128", "level": "0", "name": "Nor/ma", "opening_hours": "Mo-Fr 07:00-19:00; Sa 08:00-18:00", "operator": "Revamp Kft.", "outdoor_seating": "yes", "ref:google": "/g/11g4fvwl7f", "shop": "bakery", "wheelchair": "no"}}, {"type": "node", "id": 7215615787, "lat": 47.4912741, "lon": 19.0560559, "tags": {"addr:city": "Budapest", "addr:housenumber": "16", "addr:postcode": "1053", "addr:street": "Veres P\u00e1ln\u00e9 utca", "amenity": "cafe", "capacity": "24", "contact:email": "info@portobellobudapest.com", "contact:facebook": "100063496002673", "contact:foursquare": "5de02ee9bf9a0700086d7f52", "contact:phone": "+36 70 275 5343", "contact:tripadvisor": "20137879", "contact:website": "https://portobellobudapest.com/", "name": "Portobello Coffee & Wine", "opening_hours": "Mo-Fr 09:00-17:00; Sa 09:30-15:00", "operator": "Noble Rot Kft.", "ref:google": "/g/11j0jgx74z"}}, {"type": "node", "id": 7995767674, "lat": 47.4908503, "lon": 19.0531048, "tags": {"addr:city": "Budapest", "addr:housenumber": "4", "addr:postcode": "1056", "addr:street": "Moln\u00e1r utca", "amenity": "cafe", "contact:facebook": "https://www.facebook.com/profile.php?id=61562958808370", "contact:instagram": "franciscusalapitvany", "contact:mobile": "+36 20 418 1815", "contact:website": "https://francescocafe.hu/", "level": "-1", "name": "Caf\u00e9 Francesco", "opening_hours": "Mo-Fr 07:30-20:00; Sa 09:00-20:00; PH closed", "operator": "Fransicus Alap\u00edtv\u00e1ny", "operator:type": "ngo", "start_date": "2024-09"}}, {"type": "node", "id": 8909821090, "lat": 47.4986875, "lon": 19.0505185, "tags": {"addr:city": "Budapest", "addr:housenumber": "12", "addr:postcode": "1051", "addr:street": "J\u00f3zsef n\u00e1dor t\u00e9r", "amenity": "cafe", "capacity": "4", "contact:email": "kredenc.cafe@gmail.com", "contact:facebook": "100057699541011", "contact:phone": "+36 30 318 1871", "contact:tripadvisor": "23561113", "name": "Kredenc Cafe & Delicatesse", "old_name": "Prima Delicatesse", "opening_hours": "Mo-Fr 07:00-17:00", "operator": "M\u00e9tax Bt.", "ref:google": "/g/11nntdh3nf", "shop": "deli"}}, {"type": "node", "id": 9090744044, "lat": 47.5021207, "lon": 19.0519052, "tags": {"addr:city": "Budapest", "addr:housenumber": "25", "addr:postcode": "1051", "addr:street": "Sas utca", "amenity": "cafe", "brand": "5 to go", "name": "5 to go", "opening_hours": "Mo-Fr 07:00-18:00; Sa,Su 08:00-18:00"}}, {"type": "node", "id": 9653212817, "lat": 47.495987, "lon": 19.0531175, "tags": {"addr:city": "Budapest", "addr:floor": "0", "addr:housenumber": "8", "addr:postcode": "1052", "addr:street": "Szervita t\u00e9r", "amenity": "cafe", "capacity": "41", "check_date": "2024-07-03", "contact:email": "info@bitebakerycafe.hu", "contact:facebook": "199053670219753", "contact:phone": "+36 30 098 8136", "contact:tripadvisor": "23823651", "contact:website": "https://bitebakerycafe.hu/", "delivery": "yes", "diet:vegan": "no", "diet:vegetarian": "yes", "internet_access": "wlan", "internet_access:fee": "customers", "level": "0", "name": "Bite Bakery Caf\u00e9", "opening_hours": "Mo-Su 07:00-20:00", "operator": "Szervita Bite Bakery Kft.", "outdoor_seating": "yes", "payment:credit_cards": "yes", "payment:debit_cards": "yes", "ref:HU:vatin": "28953076-2-42", "ref:google": "/g/11rjyptnnd", "reservation": "no", "smoking": "no", "takeaway": "yes", "wheelchair": "yes"}}, {"type": "node", "id": 9694368617, "lat": 47.4890217, "lon": 19.0572171, "tags": {"addr:city": "Budapest", "addr:housenumber": "3", "addr:postcode": "1056", "addr:street": "Szerb utca", "amenity": "cafe", "capacity": "49", "contact:email": "haromszerbkavehaz@gmail.com", "contact:facebook": "100063606997508", "contact:phone": "+36 20 416 8038", "contact:tripadvisor": "21276680", "contact:website": "http://haromszerb.josz.org/", "indoor_seating": "yes", "name": "H\u00e1rom Szerb K\u00e1v\u00e9h\u00e1z", "opening_hours": "Tu-Th 08:00-22:00; Fr,Sa 08:00-00:00", "operator": "J\u00f6sz Szolg\u00e1ltat\u00f3 Kft.", "outdoor_seating": "no", "ref:google": "/g/11hp08151j"}}, {"type": "node", "id": 9981329231, "lat": 47.4941994, "lon": 19.0516126, "tags": {"addr:city": "Budapest", "addr:housenumber": "7-9", "addr:postcode": "1052", "addr:street": "R\u00e9gi posta utca", "amenity": "cafe", "contact:facebook": "100064790103595", "contact:tripadvisor": "24121469", "cuisine": "brazilian;bowl;acai", "name": "A\u00e7a\u00ed Fever", "opening_hours": "Mo-Su 11:00-19:00", "ref:google": "/g/11s8hhhgr4"}}, {"type": "node", "id": 10009350029, "lat": 47.5011314, "lon": 19.0478421, "tags": {"addr:city": "Budapest", "addr:housenumber": "2", "addr:postcode": "1051", "addr:street": "Vigy\u00e1z\u00f3 Ferenc utca", "amenity": "cafe", "capacity": "22", "contact:email": "majdnemcafe@gmail.com", "contact:facebook": "105051531930473", "contact:phone": "+36 70 626 1282", "contact:tripadvisor": "24147966", "name": "Majdnem Caf\u00e9 & More", "opening_hours": "Mo-Fr 07:00-19:00", "operator": "Krezinger \u00c1d\u00e1m", "ref:google": "/g/11rtr7jb2g"}}, {"type": "node", "id": 10010248985, "lat": 47.508758, "lon": 19.0457279, "tags": {"addr:city": "Budapest", "addr:housenumber": "1-3", "addr:postcode": "1055", "addr:street": "Kossuth Lajos t\u00e9r", "amenity": "cafe", "capacity": "150", "contact:email": "parlamentkavezo@orszagalmaetterem.hu", "contact:phone": "+36 30 436 1345", "contact:tripadvisor": "7215300", "contact:website": "https://parlamentkavezo.hu/", "indoor_seating": "yes", "level": "-1", "name": "Parlament K\u00e1v\u00e9z\u00f3", "opening_hours": "Apr-Oct 08:00-18:00; Nov-Mar 08:00-16:00", "operator": "Orsz\u00e1galma \u00c9tterem Kft.", "outdoor_seating": "no"}}, {"type": "node", "id": 10011145025, "lat": 47.5049188, "lon": 19.0480367, "tags": {"addr:city": "Budapest", "addr:housenumber": "34", "addr:postcode": "1051", "addr:street": "N\u00e1dor utca", "air_conditioning": "yes", "amenity": "cafe", "capacity": "6", "contact:facebook": "100054137454332", "contact:foursquare": "5a7430659e3b65037f01ad81", "contact:phone": "+36 70 259 7857", "contact:tripadvisor": "13826339", "indoor_seating": "yes", "name": "Ficak Bisztr\u00f3", "opening_hours": "Mo-Fr 08:00-17:00", "operator": "Rom\u00e1nc Bisztr\u00f3 Kft.", "outdoor_seating": "yes", "ref:google": "/g/11f3rj_ywc"}}, {"type": "node", "id": 10011809584, "lat": 47.5025603, "lon": 19.0466081, "tags": {"addr:city": "Budapest", "addr:housenumber": "9", "addr:postcode": "1054", "addr:street": "Akad\u00e9mia utca", "amenity": "cafe", "capacity": "6", "contact:facebook": "100054611012387", "contact:foursquare": "4c6558685e61d13a669bbb85", "contact:phone": "+36 30 593 2766", "indoor_seating": "yes", "name": "Kutka B\u00fcf\u00e9", "opening_hours": "Mo-Fr 07:30-17:00", "operator": "Kutka Bt.", "outdoor_seating": "no", "ref:google": "/g/1v76yf44"}}, {"type": "node", "id": 10012337947, "lat": 47.5057607, "lon": 19.0492855, "tags": {"addr:city": "Budapest", "addr:housenumber": "3", "addr:postcode": "1054", "addr:street": "B\u00e1thory utca", "amenity": "cafe", "capacity": "25", "contact:email": "mokkacukka5.ker@gmail.com", "contact:facebook": "100042831560300", "contact:foursquare": "5c0cf9fddd12f8002cdbfde4", "contact:phone": "+36 30 159 2488", "contact:tripadvisor": "15533945", "contact:website": "https://mokka-cukka.business.site/", "name": "Mokka Cukka", "opening_hours": "We-Fr 09:00-23:00; Sa 09:00-22:00; Su 09:00-16:00", "operator": "BIOdeVEGA Kft.", "ref:google": "/g/11h33grtpc"}}, {"type": "node", "id": 10016613108, "lat": 47.5078655, "lon": 19.0536868, "tags": {"addr:city": "Budapest", "addr:housenumber": "16", "addr:postcode": "1054", "addr:street": "Alkotm\u00e1ny utca", "amenity": "cafe", "capacity": "24", "contact:email": "barista@cafebene.hu", "contact:facebook": "100375308801792", "contact:phone": "+36 70 664 6788", "contact:tripadvisor": "23711246", "name": "Cafe Bene", "opening_hours": "Mo-Th 07:30-20:00; Fr 07:30-22:00; Sa 09:00-22:00; Su 09:00-18:00", "operator": "First Line Experts Kft.", "ref:google": "/g/11rwld0gnd"}}, {"type": "node", "id": 10017007846, "lat": 47.5038502, "lon": 19.0528655, "tags": {"addr:city": "Budapest", "addr:housenumber": "3", "addr:postcode": "1054", "addr:street": "Hold utca", "amenity": "cafe", "capacity": "10", "contact:email": "info@artizan.hu", "contact:facebook": "2335552303377860", "contact:foursquare": "5d4c02e95f3f680008342f13", "contact:mobile": "+36 30 856 5122", "contact:website": "https://artizan.hu/", "diet:vegan": "only", "diet:vegetarian": "only", "name": "F\u00e5gel", "opening_hours": "Mo-We,Fr 07:00-14:00; Th 07:00-15:00; Sa 07:00-13:00", "operator": "Bio Artiz\u00e1n Kft.", "ref:google": "/g/11h51_4zp6"}}, {"type": "node", "id": 10017128702, "lat": 47.503082, "lon": 19.0527038, "tags": {"addr:city": "Budapest", "addr:housenumber": "21", "addr:postcode": "1051", "addr:street": "Hercegpr\u00edm\u00e1s utca", "amenity": "cafe", "capacity": "32", "check_date:opening_hours": "2024-07-11", "contact:email": "dosecoffeehouse@gmail.com", "contact:facebook": "100071713006575", "contact:foursquare": "58d53238ca10707e5740f5f7", "contact:mobile": "+36 70 429 9099", "name": "Dose Espresso", "opening_hours": "Mo-Fr 08:00-18:00; Sa 09:00-18:00", "operator": "LOGhasznos\u00edt\u00f3 Kft.", "ref:google": "/g/11c70hcxsq"}}, {"type": "node", "id": 10021797395, "lat": 47.5099637, "lon": 19.0475035, "tags": {"addr:city": "Budapest", "addr:housenumber": "4", "addr:postcode": "1055", "addr:street": "Mark\u00f3 utca", "amenity": "cafe", "capacity": "20", "contact:email": "info@pilotcafe.hu", "contact:facebook": "100033954337660", "contact:foursquare": "535223b7498ecfe2c36e0dd8", "contact:phone": "+36 20 559 6760", "contact:tripadvisor": "8500419", "name": "Pilot Cafe", "opening_hours": "Mo-Fr 08:00-18:00; Sa,Su 09:00-18:00", "operator": "LogPilot Kft.", "ref:google": "/g/11bwp1180g"}}, {"type": "node", "id": 10023544528, "lat": 47.5091245, "lon": 19.0547774, "tags": {"addr:city": "Budapest", "addr:housenumber": "76", "addr:postcode": "1055", "addr:street": "Bajcsy-Zsilinszky \u00fat", "amenity": "cafe", "capacity": "2", "contact:email": "tostibudapest@gmail.com", "contact:facebook": "109939621308830", "contact:phone": "+36 70 561 7404", "contact:tripadvisor": "23838219", "name": "Tosti", "opening_hours": "Tu-Fr 08:00-17:00; Sa 10:00-16:00; Su 10:00-15:00", "operator": "Tosti Kft.", "ref:google": "/g/11qgq848tj"}}, {"type": "node", "id": 10023815671, "lat": 47.5102752, "lon": 19.0547725, "tags": {"addr:city": "Budapest", "addr:housenumber": "7", "addr:postcode": "1055", "addr:street": "Nyugati t\u00e9r", "amenity": "cafe", "brand": "Cafe Frei", "brand:wikidata": "Q105210995", "capacity": "43", "contact:email": "fashioncity@cafefrei.hu", "contact:facebook": "136916729696519", "contact:website": "https://www.cafefrei.hu/", "cuisine": "coffee_shop", "name": "Cafe Frei", "opening_hours": "Mo-Su 10:00-18:00", "operator": "Caf\u00e9 Frei Kft.", "ref:google": "/g/11n986cz4r", "takeaway": "yes"}}, {"type": "node", "id": 10023895054, "lat": 47.5105736, "lon": 19.0542137, "tags": {"addr:city": "Budapest", "addr:housenumber": "17", "addr:postcode": "1055", "addr:street": "Bihari J\u00e1nos utca", "amenity": "cafe", "capacity": "26", "contact:phone": "+36 30 913 3698", "contact:website": "https://mongkok-tea.business.site/", "cuisine": "chinese", "name": "MongKok Tea", "opening_hours": "Mo-Su 10:00-20:00", "operator": "New World Development Kft.", "ref:google": "/g/11q9683r83", "shop": "pastry"}}, {"type": "node", "id": 10024011034, "lat": 47.5109959, "lon": 19.0535014, "tags": {"addr:city": "Budapest", "addr:housenumber": "23", "addr:postcode": "1055", "addr:street": "Szent Istv\u00e1n k\u00f6r\u00fat", "amenity": "cafe", "capacity": "6", "contact:email": "faludelikat@gmail.com", "contact:facebook": "100063961875208", "contact:phone": "+36 30 643 0047", "name": "Falu", "opening_hours": "Mo-Fr 08:00-20:00; Sa,Su 10:00-17:00", "operator": "Falu Delik\u00e1t Kft.", "ref:google": "/g/11j0rvjdz0", "shop": "deli"}}, {"type": "node", "id": 10024100833, "lat": 47.5112259, "lon": 19.0528723, "tags": {"addr:city": "Budapest", "addr:housenumber": "21", "addr:postcode": "1055", "addr:street": "Szent Istv\u00e1n k\u00f6r\u00fat", "amenity": "cafe", "capacity": "12", "contact:email": "hellocoffeeandbar@gmail.com", "contact:facebook": "106504378630803", "contact:phone": "+36 30 465 3788", "name": "Hello Coffee&B\u00e1r", "opening_hours": "Mo-Fr 08:00-17:00", "operator": "Turol Coffee Kft.", "ref:google": "/g/11q1nkzkrk"}}, {"type": "node", "id": 10026635816, "lat": 47.498989, "lon": 19.0505686, "tags": {"addr:city": "Budapest", "addr:housenumber": "12", "addr:postcode": "1051", "addr:street": "J\u00f3zsef Attila utca", "amenity": "cafe", "capacity": "6", "contact:email": "cakeshop@cakeshop.hu", "contact:facebook": "444980372253599", "contact:foursquare": "51cd8ee9498e2283013569b7", "contact:phone": "+36 30 721 0773", "contact:tripadvisor": "5982504", "contact:website": "https://www.cakeshop.hu/", "indoor_seating": "yes", "name": "Cake Shop", "opening_hours": "Mo-Sa 10:00-19:00; Su 10:00-18:00", "operator": "Cake Shop Kft.", "outdoor_seating": "yes", "ref:google": "/g/11b6sfw9s4", "shop": "pastry"}}, {"type": "node", "id": 10029236399, "lat": 47.5019947, "lon": 19.0500341, "tags": {"addr:city": "Budapest", "addr:housenumber": "15", "addr:postcode": "1051", "addr:street": "Arany J\u00e1nos utca", "amenity": "cafe", "cuisine": "moroccan", "name": "Riad Atay", "phone": "+36 20 520 8501"}}, {"type": "node", "id": 10029698777, "lat": 47.502022, "lon": 19.0502953, "tags": {"addr:city": "Budapest", "addr:housenumber": "17", "addr:postcode": "1051", "addr:street": "Arany J\u00e1nos utca", "amenity": "cafe", "contact:email": "shainye@orientalhouse.cc", "contact:facebook": "579221646107369", "contact:foursquare": "60b93769164ed272f9ed5e68", "contact:tripadvisor": "23187787", "cuisine": "teahouse;chinese", "name": "Oriental Teah\u00e1z", "opening_hours": "Mo-Fr 08:30-19:00; Sa 10:00-16:00", "ref:google": "/g/11m83wjyd4"}}, {"type": "node", "id": 10029817859, "lat": 47.5004554, "lon": 19.0496991, "tags": {"addr:city": "Budapest", "addr:housenumber": "10", "addr:postcode": "1051", "addr:street": "Zr\u00ednyi utca", "air_conditioning": "yes", "amenity": "cafe", "brand": "Cafe Brunch Budapest", "capacity": "65", "contact:email": "bazilika@cafebrunchbudapest.com", "contact:facebook": "100063494952481", "contact:foursquare": "62ce9668dd9ca566d70a1322", "contact:instagram": "cafebrunchbp", "contact:mobile": "+36 30 154 5660", "contact:tripadvisor": "24056754", "contact:website": "https://www.cafebrunchbudapest.com/", "cuisine": "breakfast;brunch;hungarian", "description": "Part of the Cafe Brunch Budapest all-day breakfast restaurant chain. Located inside the CEU with a large outside terrace overlooking St. Stephen's Basilica", "diet:gluten_free": "yes", "diet:lactose_free": "yes", "diet:vegan": "yes", "diet:vegetarian": "yes", "highchair": "yes", "name": "Cafe Brunch Budapest - Bazilika", "opening_hours": "Mo-Su 08:00-16:00", "operator": "Brunch Bazilika Kft.", "outdoor_seating": "yes", "ref:google": "/g/11sqk9v1zm", "website:menu": "https://www.cafebrunchbudapest.com/menus"}}, {"type": "node", "id": 10040404735, "lat": 47.4995105, "lon": 19.0543078, "tags": {"addr:city": "Budapest", "addr:housenumber": "12", "addr:postcode": "1051", "addr:street": "Bajcsy-Zsilinszky \u00fat", "amenity": "cafe", "cuisine": "bubble_tea", "name": "Wang Cha", "opening_hours": "Mo-Su 11:00-21:00", "ref:google": "/g/11t9ryhllw"}}, {"type": "node", "id": 10042812912, "lat": 47.4980473, "lon": 19.0506483, "tags": {"addr:city": "Budapest", "addr:housenumber": "9", "addr:postcode": "1051", "addr:street": "J\u00f3zsef n\u00e1dor t\u00e9r", "amenity": "cafe", "capacity": "30", "contact:facebook": "100063582188834", "contact:phone": "+36 20 923 5580", "contact:tripadvisor": "19196560", "name": "Caffe Perfetto", "opening_hours": "Mo-Su 08:00-18:00", "operator": "BJ-Val city Kft.", "ref:google": "/g/11fppfzskn"}}, {"type": "node", "id": 10044223639, "lat": 47.4967026, "lon": 19.0517879, "tags": {"addr:city": "Budapest", "addr:housenumber": "6", "addr:postcode": "1052", "addr:street": "B\u00e9csi utca", "amenity": "cafe", "capacity": "12", "contact:email": "shop@deliziagourmet.hu", "contact:facebook": "100063960874082", "contact:foursquare": "61c203c25093806171b7593a", "contact:phone": "+36 1 616 3644", "contact:tripadvisor": "23860257", "contact:website": "https://deliziagourmet.hu/", "name": "Delizia Gourmet & More", "opening_hours": "Mo-Su 11:30-22:00", "operator": "AG Gourmet Kft.", "ref:google": "/g/11bbyq3hwv", "shop": "deli"}}, {"type": "node", "id": 10049022798, "lat": 47.4974591, "lon": 19.0530003, "tags": {"addr:city": "Budapest", "addr:housenumber": "9-10", "addr:postcode": "1051", "addr:street": "Erzs\u00e9bet t\u00e9r", "amenity": "cafe", "contact:email": "concierge.budrz@ritzcarlton.com", "contact:phone": "+36 1 429 5500", "contact:website": "https://www.ritzcarlton.com/en/hotels/europe/budapest/dining/kaffee-wien", "name": "Kaffee Wien", "opening_hours": "Mo-Su 12:00-22:00", "ref:google": "/g/11q27f88vj"}}, {"type": "node", "id": 10049925151, "lat": 47.4960636, "lon": 19.0510859, "tags": {"addr:city": "Budapest", "addr:housenumber": "2", "addr:postcode": "1051", "addr:street": "V\u00f6r\u00f6smarty t\u00e9r", "amenity": "cafe", "capacity": "40", "contact:facebook": "100063686134397", "contact:foursquare": "59f206c60336937ae405ef85", "contact:phone": "+36 1 287 6059", "contact:tripadvisor": "16194144", "indoor_seating": "yes", "name": "Red N'", "opening_hours": "Mo-Th,Su 09:00-22:00; Fr,Sa 09:00-23:00", "operator": "Ag\u00e1rdy-Mentor Kft.", "outdoor_seating": "yes", "ref:google": "/g/11fx9kp8bz", "wheelchair": "yes"}}, {"type": "node", "id": 10058620638, "lat": 47.4967985, "lon": 19.0539836, "tags": {"addr:city": "Budapest", "addr:housenumber": "2", "addr:postcode": "1052", "addr:street": "S\u00fct\u0151 utca", "amenity": "cafe", "capacity": "6", "check_date:opening_hours": "2024-01-11", "contact:email": "shop@oxobubbletea.hu", "contact:facebook": "848565675275960", "contact:phone": "+36 30 954 2460", "contact:website": "https://oxoshop.hu/", "cuisine": "teahouse;asian", "name": "OXO Bubble Tea", "opening_hours": "Mo-Su 11:00-21:00", "operator": "Bubblestar Hungary Kft.", "ref:google": "/g/11tff8_20s"}}, {"type": "node", "id": 10062137641, "lat": 47.4951105, "lon": 19.0528652, "tags": {"addr:city": "Budapest", "addr:housenumber": "5", "addr:postcode": "1052", "addr:street": "Szervita t\u00e9r", "amenity": "cafe", "capacity": "75", "contact:email": "szalon@rozsavolgyi.hu", "contact:facebook": "153474604762619", "contact:foursquare": "4f8985e7e4b0e5ed74818f59", "contact:phone": "+36 1 266 8337", "contact:tripadvisor": "8629209", "contact:website": "https://szalon.rozsavolgyi.hu/", "name": "R\u00f3zsav\u00f6lgyi Szalon", "opening_hours": "Mo-Th 18:00-23:00; Fr,Sa 18:00-22:00", "operator": "Societas Leonia Bt.", "ref:google": "/g/11dzdvtdkm", "wheelchair": "no", "wheelchair:description:hu": "K\u00e1v\u00e9z\u00f3 nem akad\u00e1lymentes: az emeleten tal\u00e1lhat\u00f3."}}, {"type": "node", "id": 10062587040, "lat": 47.4925681, "lon": 19.0542774, "tags": {"addr:city": "Budapest", "addr:housenumber": "36", "addr:postcode": "1056", "addr:street": "V\u00e1ci utca", "air_conditioning": "yes", "amenity": "cafe", "capacity": "200", "contact:email": "reservation@matildcafe.com", "contact:facebook": "100082956085953", "contact:foursquare": "5ebd5d45c7f34000088de1a8", "contact:phone": "+36 70 407 1600", "contact:tripadvisor": "23301985", "contact:website": "https://matildcafe.com/", "indoor_seating": "yes", "name": "Matild Caf\u00e9 & Cabaret", "opening_hours": "Mo,Tu 09:00-18:00; We-Su 09:00-21:00", "operator": "Melis Operation Kft.", "outdoor_seating": "no", "ref:google": "/g/11jb1y2__4"}}, {"type": "node", "id": 10062639620, "lat": 47.4930767, "lon": 19.0520188, "tags": {"addr:city": "Budapest", "addr:housenumber": "1", "addr:postcode": "1052", "addr:street": "Piarista utca", "amenity": "cafe", "capacity": "8", "contact:email": "levantbudapest@gmail.com", "contact:facebook": "LevantBudapest", "contact:phone": "+36 70 599 9990", "contact:tripadvisor": "25040637", "cuisine": "lebanese", "name": "Levant Lebanese Bistro", "opening_hours": "We-Su 09:00-23:00", "operator": "Jordan Petra City Kft.", "ref:google": "/g/11q9fvh3nn"}}, {"type": "node", "id": 10064097053, "lat": 47.4888521, "lon": 19.0578663, "tags": {"addr:city": "Budapest", "addr:housenumber": "31", "addr:postcode": "1053", "addr:street": "Veres P\u00e1ln\u00e9 utca", "amenity": "cafe", "capacity": "20", "cuisine": "breakfast", "name": "Deszka", "opening_hours": "We-Fr 08:00-17:00; Sa,Su 08:30-17:00", "operator": "I&D Event International Kft.", "ref:google": "/g/11s468755v"}}, {"type": "node", "id": 10066681134, "lat": 47.493679, "lon": 19.0569639, "tags": {"addr:city": "Budapest", "addr:housenumber": "4", "addr:postcode": "1053", "addr:street": "Kossuth Lajos utca", "amenity": "cafe", "capacity": "40", "contact:email": "info@rndtea.com", "contact:facebook": "279463432723115", "contact:phone": "+36 30 168 0888", "contact:tripadvisor": "19946798", "contact:website": "https://www.rndtea.com/", "cuisine": "tea_house;asian", "diet:vegan": "yes", "diet:vegetarian": "yes", "indoor_seating": "yes", "name": "R&D Tea", "opening_hours": "Mo-Su 10:00-22:00", "operator": "Mihome Kft.", "outdoor_seating": "no", "payment:credit_cards": "yes", "payment:debit_cards": "yes", "ref:google": "/g/11j43fr_87", "shop": "tea"}}, {"type": "node", "id": 10068155796, "lat": 47.4956742, "lon": 19.0579807, "tags": {"addr:city": "Budapest", "addr:housenumber": "22", "addr:postcode": "1052", "addr:street": "K\u00e1roly k\u00f6r\u00fat", "air_conditioning": "yes", "amenity": "cafe", "capacity": "10", "check_date": "2023-03-16", "contact:email": "nothingbudapest@gmail.com", "contact:facebook": "100063625657732", "contact:tripadvisor": "810848", "contact:website": "https://nothing-cafe.webnode.hu/", "cuisine": "coffee_shop;dessert", "delivery": "yes", "highchair": "yes", "internet_access": "wlan", "internet_access:fee": "customers", "name": "N\u00f8thing Caf\u00e9", "opening_hours": "Mo-Fr 09:00-19:00; Sa 09:00-17:00", "operator": "Nothing Cafe Kft.", "outdoor_seating": "yes", "payment:card": "yes", "payment:cash": "yes", "payment:coins": "yes", "payment:contactless": "yes", "payment:credit_cards": "yes", "payment:debit_cards": "yes", "payment:maestro": "yes", "payment:mastercard": "yes", "payment:visa": "yes", "phone": "+36 30 436 5123", "ref:google": "/g/1tfh3f9l", "reservation": "yes", "shop": "chocolate", "smoking": "no", "source": "local knowledge", "takeaway": "yes", "wheelchair": "no"}}, {"type": "node", "id": 10068723440, "lat": 47.4937141, "lon": 19.0547835, "tags": {"addr:city": "Budapest", "addr:housenumber": "6", "addr:postcode": "1052", "addr:street": "Pet\u0151fi S\u00e1ndor utca", "alt_name": "Nagysz\u00ednh\u00e1z Kantin N\u00e9z\u0151t\u00e9ri B\u00fcf\u00e9", "amenity": "cafe", "capacity": "37", "contact:email": "kantin@katonaszinhaz.hu", "contact:facebook": "100054284661475", "contact:phone": "+36 70 267 4685", "contact:tripadvisor": "15602207", "contact:website": "http://katonajozsefszinhaz.hu/kantin", "name": "K:antin", "opening_hours": "Mo-Fr 14:00-19:00+; Sa,Su 16:00-19:00+", "operator": "Salt and Sugar Catering Kft.", "ref:google": "/g/11bx5txg7b", "smoking": "outside"}}, {"type": "node", "id": 10068813475, "lat": 47.4933146, "lon": 19.0548887, "tags": {"addr:city": "Budapest", "addr:housenumber": "10", "addr:postcode": "1053", "addr:street": "Ferenciek tere", "amenity": "cafe", "capacity": "40", "contact:email": "info@parisipassage.hu", "contact:facebook": "106290450758475", "contact:foursquare": "5d873f4c229a240008e4ec7e", "contact:phone": "+36 70 702 4088", "contact:tripadvisor": "19942869", "contact:website": "https://parisipassage.hu/", "name": "P\u00e1risi Passage Caf\u00e9 & Brasserie", "opening_hours": "Mo-Su 08:00-17:00", "operator": "P\u00e1rizs Property Kft.", "ref:google": "/g/11fm15spbw"}}, {"type": "node", "id": 10075312826, "lat": 47.4933948, "lon": 19.0526801, "tags": {"addr:city": "Budapest", "addr:housenumber": "25", "addr:postcode": "1052", "addr:street": "V\u00e1ci utca", "amenity": "cafe", "contact:email": "lalucia@coffeeshop-company.hu", "contact:facebook": "100070035061325", "contact:foursquare": "504615f2e4b06e647d0e633f", "contact:website": "https://www.coffeeshopcompany.hu/kaviaren/vaci-utca/", "name": "Coffeeshop Company", "opening_hours": "Mo-Fr 08:00-23:00; Sa,Su 09:00-23:00", "operator": "L.V.R.K.C. Kft.", "ref:google": "/g/11gyrf2hqy", "smoking": "outside", "toilets:wheelchair": "yes", "wheelchair": "limited"}}, {"type": "node", "id": 10075494499, "lat": 47.4937413, "lon": 19.0525952, "tags": {"addr:city": "Budapest", "addr:housenumber": "23", "addr:postcode": "1052", "addr:street": "V\u00e1ci utca", "amenity": "cafe", "contact:facebook": "100064894055960", "contact:phone": "+36 30 337 1974", "name": "Milky Way", "opening_hours": "Fr-Su 12:00-22:00", "operator": "Miklos Innovations Kft.", "ref:google": "/g/11jrrl3fj6"}}, {"type": "node", "id": 10077588443, "lat": 47.4936788, "lon": 19.0579806, "tags": {"addr:city": "Budapest", "addr:housenumber": "5", "addr:postcode": "1053", "addr:street": "Kossuth Lajos utca", "amenity": "cafe", "contact:email": "innerbud.hu@gmail.com", "contact:foursquare": "5a0179f318d43b2e95669489", "contact:phone": "+36 30 932 6743", "contact:tripadvisor": "13201931", "name": "All Day Coffee", "opening_hours": "Mo-Su 10:00-18:30", "operator": "Innerbud Kft.", "ref:google": "/g/11kn4fddwx"}}, {"type": "node", "id": 10081647849, "lat": 47.4913623, "lon": 19.0559737, "tags": {"addr:city": "Budapest", "addr:housenumber": "14", "addr:postcode": "1053", "addr:street": "Veres P\u00e1ln\u00e9 utca", "amenity": "cafe", "capacity": "25", "contact:email": "nora@retimajor.hu", "contact:facebook": "100063972008008", "contact:phone": "+36 30 650 1775", "name": "Mocs\u00e1ri Liliom Cukr\u00e1szda", "opening_hours": "Tu-Fr 10:00-18:00; Sa,Su 10:00-17:00", "operator": "Mocs\u00e1r Eleon\u00f3ra", "ref:google": "/g/11lsfkkx1z", "shop": "pastry"}}, {"type": "node", "id": 10082294902, "lat": 47.4913751, "lon": 19.0546823, "tags": {"addr:city": "Budapest", "addr:housenumber": "40", "addr:postcode": "1056", "addr:street": "V\u00e1ci utca", "amenity": "cafe", "capacity": "60", "contact:email": "fameartscafe@gmail.com", "contact:facebook": "100055051765411", "contact:phone": "+36 1 618 6289", "contact:website": "http://www.femszinhaz.hu/", "name": "F\u00e9m Arts & Caf\u00e9", "opening_hours": "Tu-Su 16:00-22:00", "operator": "Fame Arts & Caf\u00e9 Kft.", "ref:google": "/g/11fhkmk49l"}}, {"type": "node", "id": 10082542275, "lat": 47.4887226, "lon": 19.0579744, "tags": {"addr:city": "Budapest", "addr:housenumber": "33", "addr:postcode": "1053", "addr:street": "Veres P\u00e1ln\u00e9 utca", "amenity": "cafe", "capacity": "4", "contact:email": "dolphin_vn92@yahoo.com", "contact:facebook": "100063669425398", "contact:foursquare": "5bd4655827cbd10025a4edaf", "contact:phone": "+36 30 382 8252", "contact:tripadvisor": "15325461", "contact:website": "https://nacha-bubble-tea.business.site/", "cuisine": "teahouse;asian", "name": "NaCha Bubble Tea", "opening_hours": "Mo-Fr 11:00-17:00; Sa,Su 11:00-18:00", "operator": "Mivimi Kft.", "ref:google": "/g/11gwmkj29f"}}, {"type": "node", "id": 10082725655, "lat": 47.4899223, "lon": 19.0584279, "tags": {"addr:city": "Budapest", "addr:housenumber": "17-19", "addr:postcode": "1056", "addr:street": "Szerb utca", "amenity": "cafe", "capacity": "10", "contact:facebook": "100063497917349", "contact:foursquare": "5ed8a8990ce8e600087cca22", "contact:phone": "+36 30 678 5386", "contact:tripadvisor": "21182858", "contact:website": "https://vivinacafe.com/", "indoor_seating": "yes", "name": "Vivina Caf\u00e9", "opening_hours": "Mo-Fr 08:00-17:00; Sa 08:00-16:00", "operator": "Haddad Trafik Bt.", "outdoor_seating": "yes", "ref:google": "/g/11j43f5wt6"}}, {"type": "node", "id": 10094997332, "lat": 47.4918535, "lon": 19.0603346, "tags": {"addr:city": "Budapest", "addr:housenumber": "9", "addr:postcode": "1053", "addr:street": "Henszlmann Imre utca", "amenity": "cafe", "contact:instagram": "https://www.instagram.com/bakudapa.at.budapest/", "cuisine": "indonesian", "name": "baKudapa"}}, {"type": "node", "id": 10209802036, "lat": 47.5055182, "lon": 19.0516323, "tags": {"addr:city": "Budapest", "addr:housenumber": "7", "addr:postcode": "1054", "addr:street": "Aulich utca", "air_conditioning": "yes", "amenity": "cafe", "contact:email": "info@luibudapest.com", "contact:facebook": "100083689951373", "contact:phone": "+36 30 828 5581", "contact:website": "https://luibudapest.com/", "indoor_seating": "yes", "name": "Lui", "opening_hours": "Tu-Fr 07:30-18:00; Sa 08:00-14:00", "outdoor_seating": "yes", "ref:google": "/g/11s5vxv1x6", "shop": "bakery", "wheelchair": "limited"}}, {"type": "node", "id": 10693156425, "lat": 47.5048921, "lon": 19.0474746, "tags": {"addr:city": "Budapest", "addr:housenumber": "7", "addr:postcode": "1054", "addr:street": "Garibaldi utca", "amenity": "cafe", "name": "F\u00f6n\u00edcia"}}, {"type": "node", "id": 10826811941, "lat": 47.4951356, "lon": 19.0532026, "tags": {"addr:city": "Budapest", "addr:housenumber": "17-19", "addr:postcode": "1052", "addr:street": "Pet\u0151fi S\u00e1ndor utca", "amenity": "cafe", "brand": "Starbucks", "brand:wikidata": "Q37158", "cuisine": "coffee_shop", "diet:vegan": "yes", "diet:vegetarian": "yes", "name": "Starbucks", "official_name": "Starbucks Coffee", "opening_hours": "Mo-Fr 07:00-21:00; Sa,Su 08:00-21:00", "outdoor_seating": "yes", "takeaway": "yes", "website": "https://www.starbucks.hu/hu/store-locator?types=starbucks&place=Szervita+t%C3%A9r&latLng=47.494920000000015%2C19.053579999999986&zoom=15&storeDetail=61345-295354&store=61345-295354"}}, {"type": "node", "id": 11410654445, "lat": 47.4903004, "lon": 19.0591978, "tags": {"amenity": "cafe", "indoor_seating": "yes", "name": "La Boutique", "outdoor_seating": "no"}}, {"type": "node", "id": 11762095549, "lat": 47.4968674, "lon": 19.0541415, "tags": {"addr:city": "Budapest", "addr:housenumber": "4", "addr:postcode": "1052", "addr:street": "De\u00e1k Ferenc t\u00e9r", "amenity": "cafe", "contact:email": "info@insulakavezo.hu", "contact:facebook": "100089388745456", "contact:instagram": "insulakavezo", "contact:phone": "+36 20 824 3482", "name": "INSULA K\u00e1v\u00e9z\u00f3"}}, {"type": "node", "id": 11835959453, "lat": 47.5029031, "lon": 19.0539371, "tags": {"addr:city": "Budapest", "addr:housenumber": "34", "addr:postcode": "1051", "addr:street": "Arany J\u00e1nos utca", "amenity": "cafe", "check_date": "2024-04-22", "dog": "yes", "name": "Meron", "opening_hours": "Mo-Fr 07:00-18:00; Sa 09:00-18:00; Su 10:00-18:00", "payment:cash": "yes", "payment:credit_cards": "yes", "payment:debit_cards": "yes", "toilets": "yes", "website": "https://www.meron.coffee/locations/", "wheelchair": "limited"}}, {"type": "node", "id": 12092960801, "lat": 47.4937775, "lon": 19.0547081, "tags": {"amenity": "cafe", "cuisine": "breakfast;coffee_shop;tea", "name": "Muse"}}, {"type": "node", "id": 12167815841, "lat": 47.4946479, "lon": 19.0579071, "tags": {"alt_name": "Red and Black", "amenity": "cafe", "club": "board_games", "contact:email": "info@redandblack.hu", "contact:facebook": "redandblackszalon", "contact:instagram": "redandblack.tarsasjatekszalon", "contact:phone": "+36 1 617 3692", "contact:website": "https://redandblack.hu", "indoor_seating": "yes", "internet_access": "wlan", "internet_access:fee": "no", "internet_access:ssid": "Redandblack", "name": "Red&Black T\u00e1rsasj\u00e1t\u00e9kszalon", "opening_hours": "Tu-Sa 15:00-23:00", "outdoor_seating": "yes"}}, {"type": "node", "id": 12213840001, "lat": 47.4877328, "lon": 19.0571227, "tags": {"amenity": "cafe", "indoor_seating": "yes", "name": "Bian Market Bubble Tea", "outdoor_seating": "yes"}}, {"type": "node", "id": 12254795392, "lat": 47.4924646, "lon": 19.060734, "tags": {"amenity": "cafe", "cuisine": "bubble_tea", "name": "Bubble Kingdom", "opening_hours": "Mo-Su 11:00-20:00"}}, {"type": "node", "id": 12318433084, "lat": 47.4933936, "lon": 19.059916, "tags": {"amenity": "cafe", "name": "The PO"}}, {"type": "node", "id": 12364319615, "lat": 47.5012174, "lon": 19.0517682, "tags": {"addr:city": "Budapest", "addr:housenumber": "14", "addr:postcode": "1051", "addr:street": "Sas utca", "amenity": "cafe", "contact:instagram": "hoodedcoffee", "contact:mobile": "+36 30 515 0603", "name": "hooded coffee.", "opening_hours": "Mo-Fr 08:00-18:00; Sa 09:00-18:00; Su 10:00-18:00"}}, {"type": "node", "id": 12477932208, "lat": 47.4947924, "lon": 19.0563373, "tags": {"amenity": "cafe", "name": "The Principal's Office", "opening_hours": "Mo-Sa 08:30-15:30"}}]}